id,name,street,city,region,postal code,phone,email,website,zone,country
45,All Star Baseball and Softball,135 Huddleston Road,Peachtree,GA,30269,770-631-3303,jpow1@bellsouth.net,www.virtualcages.com,USA,USA
123,Properformance Institute,2008 NE 23rd Street,Grain Valley,MO,64029,816-716-6864,rbarker@properformanceinstitute.com,www.properformanceinstitute.com,USA,USA
122,Pro-Day Baseball,,,,,888-224-6150,prodaybaseball@yahoo.com,www.shop.pro-daybaseball.com,USA,USA
118,Players Paradise,9628 E. 350 Highway,Raytown,MO,64133,816-886-6792,michael@playersparadisekc.com,www.playersparadisekc.com,USA,USA
116,Play It Again Sports,8923 S. Meridian Street,Indianapolis,IN,46237,317-859-8080,mselaine32@netscape.net,www.playitagainsportsindy.com,USA,USA
114,Play It Again Sports,3527 S. Main Street,Elkhart,IN,46517,574-293-2462,pias.elkhart@gmail.com,,USA,USA
113,Play It Again Sports,209 Towne Drive,Elizabethtown,KY,40162,270-982-7529,lwisls@msn.com,www.playitagainsportshardincounty.com,USA,USA
112,Peak Performance Sports Zone,11495 S. Cleavland Avenue,Fort Meyers,FL,33907,239-362-1819,info@peakperformancesportszone.com,www.peakperformancesportszone.com,USA,USA
111,Oregon City Sporting Goods,1010 Main Street,Oregon City,OR,97045,503-656-3341,kurt@ocsports.us,,USA,USA
108,OB Team Sports,809 State Route 125,Hamersville,OH,45130,877-379-9051,byrono@obteamsports.com,,USA,USA
105,Mordecai Sporting Goods,809 Main Street Suite 101,Gardendale,AL,35071,205-631-4172,mspts@aol.com,,USA,USA
101,MAC Sporting Goods,400 N. Eastern Boulevard,Montgomery,AL,36117,334-277-4963,,,USA,USA
100,Luv-2-Par Sporting Goods,649 Corporate Drive Suite C,Houma,LA,70360,985-262-4728,,,USA,USA
95,Line Drive Indoor Baseball,3125 Jupiter Park Circle Suite 1,Jupiter,FL,33458,561-283-6614,linedrivebt@yahoo.com,www.linedriveindoorbaseball.com,USA,USA
93,Just Softball,925 Eucalyptus Drive,El Segundo,CA,90245,310-466-0324,deb@just-softball.com,www.just-softball.com,USA,USA
91,JC Sports,1134 Cotton Gin Drive,Woodstock,GA,30188,,coachcrane@hotmail.com,,USA,USA
90,Home Run Park,711 S. Beach Boulevard,Anaheim,CA,92804,714-229-8850,mikehrp@gmail.com,www.homerunpark.com,USA,USA
88,Hibbett Sporting Goods,,,,,,,www.hibbett.com,USA,USA
86,Good Sports,124 Robin Road #1500,Altamonte Springs,FL,32701,407-260-1609,dale@goodsports.biz,www.goodsports.biz,USA,USA
85,Golf Plus,5601 E. Virginia,Evansville,IN,47715,812-477-7529,golfplusevv@aol.com,www.golfplusstores.com,USA,USA
82,Family Baseball,514 10th Street,Henderson,KY,42420,270-826-4300,lwisls@msn.com,,USA,USA
81,Elite Sporting Goods,1854 Thomasville Road,Tallahassee ,FL,32303,850-385-2255,kipwest@yahoo.com,,USA,USA
79,East Gadsen Sporting Goods,110 College Plaza,Gadsen,AL,35403,256-546-0043,egadsensporting@comcast.net,,USA,USA
77,Dream Bat Company,64 Field Road Unit 4F,Somers,CT,6071,860-335-7196,kevin_mayo@dreambats.com,www.dreambats.com,USA,USA
76,Double Diamond Sports,602 Sloop Street,Kannapolis,NC,28083,704-933-4111,doublediamond@carolinarr.com,www.doublediamontsports.com,USA,USA
73,Dalton Sports,3106 E Walnut Avenue,Dalton,GA,30721,706-226-1604,,,USA,USA
66,Coaches Corner Sporting Goods,750 Oak Street,Terre Haute,IN,47807,812-232-2290,coachescornersq@gmail.com,www.coachescornersportinggoods.com,USA,USA
64,Cherokee Batting Range,711 Bascomb Commercial Parkway,Woodstock,GA,30189,770-591-4778,,www.cherokeebatting.com,USA,USA
63,Cheapbats.com,711 S. Beach Boulevard,Anaheim,CA,92804,800-589-4487,mike@cheapbats.com,www.cheapbats.com,USA,USA
61,Bullpen Sports,1096 N. Center Road,Burton,MI,48509,810-742-8820,bullpensportsgear@yahoo.com,www.bullpensportsgear.com,USA,USA
59,Bownet,4690 Calle Quetzal,Camarillo,CA,93012,805-310-1650,creamerfmly@aol.com,www.bownet.net,USA,USA
58,Bob's Sports Store,2145 S. Main Street,Waynesville,NC,28786,828-456-5843,,,USA,USA
56,Better Baseball,132 Carruth Drive,Marietta,GA,30060,800-997-4233,aga@betterbaseball.com,www.betterbaseball.com,USA,USA
55,Beast Mode Academy,,Houston,TX,,713-305-1387,mxsoliz@aol.com,,USA,USA
54,Baum's Sporting Goods,937 E. Broadway,Tempe,AZ,85282,480-929-9600,,,USA,USA
53,Baum's Sporting Goods,6460 N. Oracle Road,Tucson,AZ,85704,520-797-7779,info@baumssportinggoods.com,,USA,USA
52,Baum's Sporting Goods,2845 E. Speedway Boulevard,Tucson,AZ,85716,520-881-1100,anthony@baumssportinggoods.com,www.baumssportinggoods.com,USA,USA
50,Bartley's Sporting Goods,2555 Cleavland Ave,Fort Meyers,FL,33901,239-334-0441,info@bartleysports.com,www.bartleysports.com,USA,USA
49,Barcelona Sporting Goods,10405 Katy Freeway Suite C,Houston,TX,77024,713-464-8313,,,USA,USA
48,Barcelona Sporting Goods,9999 W. Sam Houston Parkway N.,Houston,TX,77064,713.464.8313,diana@barcelonasports.com,www.barcelonasports.com,USA,USA
47,Athletic Center,801 Linton Way,Princeton,KY,42445,270-365-2500,lwisls@msn.com,,USA,USA
144,Varsity Sports,134 N. Broad Street,Griffith,IN,46319,219-924-5110,lwisls@msn.com,,USA,USA
143,Trophy Sports Center,26 Kinsey Road,Xenia,OH,45385,937-376-2311,trophysports@aol.com,www.trophysportscenter.com,USA,USA
138,SWAT Nation Softball Academy,,,,,856-981-3153,ken.esser@verizon.net,,USA,USA
137,Superstar Team Sports,3169 Forest Hill Boulevard,West Palm Beach ,FL,33406,561-969-7400,superstarsportswpb@bellsouth.net,www.superstarteamsports.com,USA,USA
136,Super Sports,5310 Old Montgomery Highway,Tuscaloosa,AL,35405,205-758-9555,supersportsinc@aol.com,,USA,USA
132,Sports Cellar,1018 Asheville Highway,Hendersonville,NC,28791,828-693-3211,sportscellar@bellsouth.net,,USA,USA
130,SPC Sports Inc.,9431 Mentor Avenue,Mentor,OH,44060,440-625-1266,jesse@spcsports.com,www.spcsports.com,USA,USA
129,SP Hitting Zone,33925 Johnson Drive,Sioux City,IA,51108,712-899-0472,sphittingzone@yahoo.com,,USA,USA
128,Softball Our Game,3519 Wedgewood Lane,The Villages,FL,32162,352-751-4007,,www.softballrgame.com,USA,USA
127,Roy Kuhl Sports,3436 Winfield Road,Winfield,WV,25213,304-586-4778,roykuhlsports@gmail.com,www.roykuhlsports.com,USA,USA
126,Romeo's Sporting Goods,5520 Crestwood Boulevard,Birmingham,AL,35212,205-591-7145,romeosports@aol.com,www.romeossportinggoods.com,USA,USA
131,BaseballJunk.com,2023 S. Cooper Street,Arlington,TX,76010,817-303-6620,sportjunk@gmail.com,,USA,USA
256,D-BAT San Antonio North,2250 Chipley Circle,San Antonio,TX,78217,(210) 826-3228 (DBAT),,,USA,USA
267,Academy Sports,5370 South Riley Lane,Murray,UT,84107,801-713-0581,,http://www.academysportsutah.com/,USA,USA
295,Coaches Corner Sporting Goods,,,AL,,,,,USA,USA
312,Denton Athletics,908 W. University Drive,Denton,TX,76201,940-320-5500,,http://www.dentonathletics.net,USA,USA
313,Diamond Sports,13712 24th Street E,Sumner,WA,98390,253-987-5082,,http://www.diamondsportstrainingcenter.com,USA,USA
314,Dick's Sporting Goods,,,AL,,877-846-9997,,http://www.dickssportingoods.com,USA,USA
317,Dugout Sports,26302 I-45 North,Spring,TX,77386,281-367-4076,,http://www.dugoutsports.com,USA,USA
318,Dumont Sporting Goods,1003 McKinley Avenue,Canton,OH,44713,330-455-5267,,,USA,USA
322,Family Sports,514 10th Street,Henderson,KY,42420,270-826-4300,,,USA,USA
323,Frozen Ropes,55 Bay Hill Road,Lakewood,NJ,8701,973-202-3931,,http://www.frozenropes.com,USA,USA
324,Gable Sporting Goods,6250 Fairburn Road,Douglasville,GA,30134,770-942-5397,,http://www.gablesportsga.com,USA,USA
327,Grin and Wear It,108 N. Keswick Avenue,Glenside,PA,19038,215-292-2495,,http://www.grinandwearit.net,USA,USA
328,Hibbett Sporting Goods,,,AL,,,,http://www.hibbett.com,USA,USA
330,Home Leisure,795 N Main Street,Manahawkin,NJ,8050,609-597-6628,,http://www.homeleisure4u.com,USA,USA
334,Jerry's Sporting Goods,4031 Sports Street,Wichita Falls,TX,76308,940-696-0480,,http://www.jerrysscoreboard.com,USA,USA
336,Legend's Athletic,1032 Shady Oaks Drive,Denton,TX,76205,214-444-8679,,http://www.legendsathleticsupply.com,USA,USA
339,Lockdown Sports Gear,1348 N. Great Neck Road,Virginia Beach,VA,23454,757-481-0968,,,USA,USA
347,MVP Sports,72 North Main,Spanish Fork,UT,84660,801-798-3587,,,USA,USA
348,National Pro Fastpitch,3350 Hobson Pike,Hermitage,TN,37076,615-232-2900,,http://www.profastpitch.com,USA,USA
351,Omega Sports,130 S. Walnut,Greensboro,NC,27409,336-854-0797,,http://www.omegasports.net,USA,USA
354,Universal Athletic,"14131 N. Rio Vista Boulevard, Suite 1",Peoria,AZ,85381,888-322-2214,,http://www.universalathletic.com,USA,USA
355,Midway Sports,"7795 W. Flagler Street, Suite 8",Miami,FL,33144,305-264-0788,,http://www.midwaysports.com,USA,USA
356,Soccer Line,2876 Ringling Boulevard,Sarasota,FL,34237,941-365-6572,,http://www.soccerlineusa.com,USA,USA
285,Boomerang Sports and Fitness,1562 Marketplace Boulevard,Cumming,GA,30041,678-965-4420,,http://www.boomerangsportsandfitness.com,USA,USA
282,Black Rock Sports,10872 Isabelle Drive,New Haven,IN,46774,206-749-1870,,http://www.blackrocksportsinc.com,USA,USA
357,Soccer Locker Team Sports,8142 US 60,Ashland,KY,41102,606-928-4625,,http://www.soccerlockerteamsports.com,USA,USA
358,Universal Athletic,24 24th Street West,Billings,MT,59102,800-551-1832,,http://www.universalathletic.com,USA,USA
360,Universal Athletic,3544 Harrison Avenue,Butte,MT,59701,877-704-6277,,http://www.universalathletic.com,USA,USA
361,Universal Athletic,903 13th Avenue South,Great Falls,MT,59405,800-337-8701,,http://www.universalathletic.com,USA,USA
362,Universal Athletic,"1001 West Interstate Avenue, Suite 102",Bismark,ND,58503,888-858-0998,,http://www.universalathletic.com,USA,USA
364,Play It Again Sports,101 E. Alex Bell Road,Centerville,OH,45459,937-291-0031,,,USA,USA
366,Simpson Hardware,40 W. Wesmark Boulevard,Sumter,SC,29150,803-773-3397,,http://www.simpsonhardwareinc.com,USA,USA
367,T & T Sporting Goods,1207 Rosewood Drive,Columbia,SC,29201,803-799-8300,,,USA,USA
368,SportJunk.com,2023 S. Cooper Street,Arlington,TX,76010,817-303-6620,,http://www.baseballjunk.com,USA,USA
369,Academy Sports,1565 West Hill Field Road,Layton,UT,84041,801-544-0525,,http://www.academysportsutah.com,USA,USA
371,Universal Athletic,735 East Fort Union Boulevard,Midvale,UT,84047,800-333-3457,,http://www.universalathletic.com,USA,USA
372,Game On Sports Complex,117 Enterprise Drive,Madison Heights,VA,24572,434-238-2210,,,USA,USA
373,Home Run Junkie,"410 Light Foot Road, Suite C",Williamsburg,VA,23188,757-345-0330,,http://www.homerunjunkie.com,USA,USA
374,Play It Again Sports,250 Peppers Ferry Road #11542,Christiansburg,VA,24073,540-381-1261,,,USA,USA
397,Looper Sports Connection,7631 Horse Lake Road,Brooksville,FL,34601,352-796-7974,,,USA,USA
398,R & S Sports,3212 Gillionville Road,Albany,NY,31721,229-888-3755,,,USA,USA
399,R & S Sports,3122 N. Oak Street,Valdosta,GA,31602,229-253-9533,,,USA,USA
405,Taylors Bike Shop ,3269 West 5400 South,Taylorsville,UT,84118,801-969-4995,,HTTP://www.taylorsbikeshop.com,USA,USA
387,Ball & Chew Sports,717 Cattleman Road,Sarasota,FL,34232,941-371-7801,,http://www.extrainnings-sarasota.com,USA,USA
402,Sorrentino's Sports Center,2330 Sheridan Drive,Tonawanda,NY,14150,716-836-2715,,http://www.sorrsports.com,USA,USA
391,Grand Slam,3636 Virginia Beach Boulevard,Virginia Beach,VA,23452,757-431-0505,,http://www.grandslamvb.com,USA,USA
401,Smiths Sporting Goods,1435 Lindberg Drive,Slidell,LA,70458,985-646-2266,,http://www.smithssportinggoods.com,USA,USA
400,Red Stick Sports,5770 Essen Lane,Baton Rouge,LA,70809,225-769-6232,,http://www.redsticksports.com,USA,USA
394,Jamestown Cycle Shop,10 Harrison Street,Jamestown,NY,14701,716-664-4112,,http://www.jamestowncycleshop.com,USA,USA
393,Hock Sports,233 Race Track Road NW,Fort Walton Beach,FL,32547,850-243-9574,,http://www.hocksports.com,USA,USA
294,C-N-K Athletics,216 N. Court Street,Circleville,OH,43113,740-477-9828,,http://www.cnkathleticequipment.com,USA,USA
292,Cherokee Batting Range,711 Bascomb Commercial Parkway,Woodstock,GA,30189,770-591-4778,,http://www.cherokeebatting.com,USA,USA
291,Cheapbats.com,711 S. Beach Boulevard,Anaheim,CA,92804,800-589-4487,,http://www.cheapbats.com,USA,USA
289,Bullpen Sport,1096 N. Center Road,Burton,MI,48509,810-742-8820,,http://www.bullpensportsgear.com,USA,USA
287,Bownet,4690 Calle Quetzal,Camarillo,CA,93012,805-310-1650,,http://www.bownet.net,USA,USA
286,Boost Your Average,2326 Townsgate Road,Westlake Village,CA,91361,805-370-1025,,http://www.boostyouraverage.com,USA,USA
284,Bob's Sports Store,2145 S. Main Street,Waynesville,NC,28786,828-456-5843,,,USA,USA
281,Better Baseball,132 Carruth Drive,Marietta,GA,30060,800-997-4233,,http://www.betterbaseball.com,USA,USA
279,Baum's Sporting Goods,2845 E. Speedway Boulevard,Tucson,AZ,85716,520-881-1100,,http://www.baumssportinggoods.com,USA,USA
278,Baum's Sporting Goods,6460 N. Oracle Road,Tucson,AZ,85704,520-797-7779,,http://www.baumssportinggoods.com,USA,USA
277,Baum's Sporting Goods,937 E. Broadway,Tempe,AZ,85282,480-929-9600,,http://www.baumssportinggoods.com,USA,USA
274,Baseball Heaven,1111 E. Wackerly Street,Midland,MI,48642,989-205-0401,,http://www.baseballheavenmidland.com,USA,USA
273,Bartley's Sporting Goods,2555 Cleavland Ave,Fort Meyers,FL,33901,239-334-0441,,http://www.bartleysports.com,USA,USA
272,Barcelona Sporting Goods,9999 W. Sam Houston Parkway N.,Houston,TX,77064,713.464.8313,,http://www.barcelonasports.com,USA,USA
271,Barcelona Sporting Goods,10405 Katy Freeway Suite C,Houston,TX,77024,713-464-8313,,http://www.barcelonasports.com,USA,USA
268,All Star Baseball and Softball,135 Huddleston Road,Peachtree,GA,30269,770-631-3303,,http://www.virtualcages.com,USA,USA
385,AlaskaSoftball.com,3070 Brookview Street,Anchorage,AK,99504,907-227-4515,,http://www.alaskasoftball.com,USA,USA
390,Elite Sportscenter West,1800 Huey P. Long Ave,Gretna,LA,70053,504-263-1314,,http://www.eswbaseball.com,USA,USA
410,Athletic Barn,5412 Waxhaw Marvin Road,Waxhaw,NC,28173,704-999-1635,,,USA,USA
413,C&M Sporting Goods,158 Westgate Pkway,Dothan,AL,36303,334-793-7415,,,USA,USA
414,Dans Sports,12108 N Nebraska Ave,Tampa,FL,33612,813-971-5512,,,USA,USA
416,Elmwood Sports Center,1553 Elmwood,Cranston,RI,2910,401-781-9113,,,USA,USA
417,Franks Sports Shop,430 E Tremont Ave,Bronx,NY,10457,877-223-1438,,,USA,USA
418,Frozen Ropes - Katy,20000 Park Row,Katy,TX,77449,281-578-9790,,http://www.frozenropes.com,USA,USA
420,Monkey Sports - CA,1962 Barranca Parkway,Irvine,CA,92606,949-337-4980,,http://www.monkeysports.com,USA,USA
421,Monkey Sports - MA,949 Providence Highway (Route 1),Norwood,MA,2062,781-769-1754,,http://www.monkeysports.com,USA,USA
422,Monkey Sports - NJ,1500 Route 9 North,Woodbridge,NJ,7095,732-634-1446,,http://www.monkeysports.com,USA,USA
423,Paul's Cycling & Fitness,2405 Buchanan Street,Winston Salem,NC,27127,336-399-3824,,,USA,USA
424,Philbricks,161 Portland Ave,Dover,NH,3820,603-742-9333,,,USA,USA
425,Plaza Sports,89 Route 25A,Rocky Point,NY,11778,631-744-5555,,,USA,USA
431,Second Hand Sports,1016 West Broadway,Ardmore,OK,73401,580-226-5668,,,USA,USA
433,Sports World,535 W Baddour Parkway,Lebanon,TN,37087,615-444-6554,,,USA,USA
434,Tradewins Sports,79 S. Lake St.,Forest Lake,MN,55025,651-464-2994,,,USA,USA
432,Sport N Center,205 S Range Ave,Denham Springs,LA,70726,225-664-7386,,http://www.sportncenter.net,USA,USA
437,2nd Time Sports,2625 Valley Ave,Winchester,VA,22601,,,,USA,USA
438,7th Inning Sports,19862 Virgil H Goode Highway,Rocky Mount,VA,24151,540-482-0062,,,USA,USA
439,Arizona East Valley Sports INC,6306 East Main Street,Mesa,AZ,85205,480-832-8172,,,USA,USA
440,Athletes Corner-LA,1737 West Sale Road,Lake Charles,LA,70605,337-479-1920,,,USA,USA
442,Bats Unlimited,2852 Walnut Unit A,Tustin,CA,92780,714-617-7810,batsales@sbcglobal.net,,USA,USA
443,Big  D Sports,17175 Beacon St,Poncha Toula,LA,70454,601-569-1868,bigdsportsinfo@gmail.com,,USA,USA
444,C&M Sporting Goods- PA,1305 West Chester Pike STE.30,Havertown,PA,19083,610-449-5880,,,USA,USA
445,Chappell and Sons,605 W. Fortification St,Jackson,MS,39203,601-291-4648,,,USA,USA
446,Dassel Entertainment,640 Parker Ave. W.,Dassel,MN,55325,320-275-2916,,,USA,USA
447,D-Bat Academy - Dallas,15605 Wright Brothers Dr,Addison,TX,75001,972-387-3228,,,USA,USA
448,DePhillips Sports,33-03A Francis Lewis Blvd,Flushing,NY,11358,718-445-5420,,,USA,USA
450,Direct Sports,1720 Curve Road,Pearisburg,VA,24134,540-921-1243,,http://www.directsports.com,USA,USA
451,Dominic's Sports,204 Arch St,Greensburg,PA,15601,724-836-5999,,,USA,USA
452,East Central Sports Center,21231 Mississippi 613,Moss Point,MS,39562,228-588-2600,,,USA,USA
453,East Valley Sports,6306 East Main Street,Mesa,AZ,85205,480-832-8172,,,USA,USA
454,Elite Sporting Goods-GA,658 Grayson Highway,Lawrenceville,GA,30045,770-309-7972,elitesportinggoods@yahoo.com,,USA,USA
455,FKA Worlwide Sports,11103 Queens Wood Ter,Bowie,MD,20721,706-691-9483,,,USA,USA
456,Gorfam Athletics,8922 S Memorial Dr,Tulsa,OK,74133,918-806-2600,ruspo2@aol.com,http://www.portsoutdoors.com,USA,USA
458,Holovak & Coughlin Sporting Goods 613,14 Mill St,Arlington,MA,2476,781-648-7000,,,USA,USA
459,Inside The Park Sporting Goods,2353 South Azusa Ave,West Covina,CA,91792,626-964-1800,bobbyleecao@gmail.com,,USA,USA
462,Legends Sporting Goods,8224 5Th Ave,Brooklyn,NY,11209,718-680-8957,,,USA,USA
463,Maurer's Southland Sports,208 East North Ave#B,Brlton,MO,64012,816-331-9665,,,USA,USA
464,Monster Batting Cages,320 W Main St,Clayton,NC,27520,919-585-4990,,,USA,USA
465,Perfect Game USA,1203 Rockford Road S.W.,Cedar Rapids,IA,52404,319-298-2923,,,USA,USA
466,Play It Again Sport-Lynchburg,1033 Woodberry Square Place,Lynchburg,VA,24503,434-385-5811,piasforest@gmail.com,,USA,USA
467,Play It Again Sports - Ridgeland,900 E County Line RD Suite 140,Ridgeland,MS,39157,601-956-5500,,,USA,USA
468,Play It Again Sports-Decatur,3004 A N Water,Decatur,IL,62526,217-872-2434,piasdecil@sbcglobal.net,,USA,USA
469,Play The Game,8051 S Willow ST,Manchester,NH,3103,603-232-6220,,,USA,USA
471,Southside Sports,177 Kernstown Commons Blvd,Winchester,VA,22602,540-868-8520,southsidesports@live.com,,USA,USA
472,Sports Exchange,2461 US Hghway 9 North,Howell,NJ,7731,732-308-9225,,,USA,USA
473,T & B Sports,1345 Fourth St,San Rafael,CA,94901,415-453-2433,,,USA,USA
476,The ClubHouse,2215 Black Rock Turnpike,Fairfield,CT,6825,203-292-8700,,,USA,USA
477,The Sports Basement,1590 Bryant Street,San Francisco,CA,94103,415-573-3000,,,USA,USA
479,The Sports Basement,1177 Kern Ave,Sunnyvale,CA,94085,408-732-0300,,,USA,USA
480,The Sports Basement,1875 South Bascom Ave Ste#240,Campbell,CA,95008,408-899-5783,,,USA,USA
481,The Sports Basement,610 Old Mason Street,San Francisco,CA,94129,415-437-0100,,,USA,USA
482,The Sports Haus,19505 7th AVE. NE Ste 107,Poulsbo,WA,98370,360-697-2311,sporthaus@yahoo.com,,USA,USA
483,"Todd & Moore, INC",620 Huger Street,Columbia,SC,29201,803-765-0150,,,USA,USA
484,Tri County Sports,619 Point Township Line Road,Northumberland,PA,17857,570-473-3241,,,USA,USA
486,Vivroux Sporting Goods,6446 N New Braunfels Ave,San Antonio,TX,78209,210-829-4197,savonsports@gmail.com,,USA,USA
487,Williams Sporting Goods,26 North Plaza,Paris,TX,75460,800-218-3334,wsg.jimdavis@sbcglobal.net,,USA,USA
500,Freddie Battagliaâ€™s,501 Wyoming Ave,Scranton,PA,18509,570-344-3112,,,USA,USA
502,All American Sports Shoppe,20120 Saticoy Street,Winnetka,CA,91306,818-998-4253,,http://www.allamericanbaseballshop.com,USA,USA
503,Allen Sports Ctr.,6585 Seminole Blvd.,Seminole,FL,33772,727-397-0421,,http://www.allen-sports.com,USA,USA
510,Centerfield Baseball & Softball Academy,1861 W. Grant Road Suite 107,Tucson,AZ,85745,520-440-4487,,http://www.centerfieldhits.com,USA,USA
513,First Team Sports,2520 Wade Hampton BLVD,Greenville,SC,29615,864-268-6227,,http://www.firstteamsportsgreenvillesc.com,USA,USA
514,Free Agent Sports,595 Deer Run W.,Palm Harbor,FL,34684,727-793-4737,,,USA,USA
516,Graves Performance Sports,3907 Central Ave Suite H,Hot Springs,AR,71913,501-226-9700,,http://www.gravesperformancesports.com,USA,USA
518,Harder Sporting Goods,2098 Lycoming Creek Road,Williamsport,PA,17701,570-326-1591,,http://www.hardersportinggoods.com,USA,USA
520,JP Longball,5232 Riley Street,San Diego,CA,92110,619-299-4487,,http://www.jplongball.com,USA,USA
521,Leway Enterprises,4854 Streets Run Road,Pittsburgh,PA,15236,412-942-0740,,http://www.leway.com,USA,USA
523,Play I Again Sports-Columbus,6011 East Main Street,Columbus,OH,43213,614-868-0018,,http://www.playitagainsports.com,USA,USA
525,Play It Again Sports-Studio City,12038 Ventura Blvd,Studio City,CA,91604,818-752-9123,,http://www.playitagainsports.com,USA,USA
526,Reads Sporting Goods,812 IAA Dr.,Blommington,IL,61701,309-663-0355,,,USA,USA
529,Sports Specialties,613 Station Ave,Haddon Heights,NJ,8035,856-547-3252,,http://www.heightssports.com,USA,USA
530,Sports World-Shreveport,8809 Jewella Ave,Shreveport,LA,71108,318-686-1880,,http://www.sportsworlduniforms.com,USA,USA
532,The Locker Room,514 N Bluff Street,St George,UT,84770,435-628-4221,,http://www.lockerroomsports.com,USA,USA
109,Olympia Team Sports,4367 Atlanta Highway,Montgomery,AL,36109,334-277-2622,olympiaspt@networktel.net,http://www.olympiaspt.com,USA,USA
412,Diamond Pro Sports,1407 Chesapeake Ave,Baltimore,MD,21220,443-690-8481,,,USA,USA
594,All Star Batting Cages,1127 Berryville Ave,Winchester,VA,22601,540-722-4724,,,USA,USA
596,Bagger Sports,23460 Cinema Drive Suite F,Valencia,CA,91355,661-260-2502,,,USA,USA
598,Blue Heron Sports,5115 St. Route 405,Milton,PA,17847,570-742-3228,,,USA,USA
599,Closeout Bats.com,140 Woodland Ave,Westwood,NJ,7675,866-999-6886,,http://www.closeoutbats.com,USA,USA
600,East Texas Sports Center,310 North Washington Ave,Marshalltown,TX,75670,903-935-1912,,,USA,USA
601,Dick's Sporting Goods,345 Court St,Coraopolis,PA,15108,877-846-9997,,http://www.dickssportingoods.com,USA,USA
602,Eich's Sports,24316 W 143rd Street,Plainfield,IL,60544,815-436-3771,,,USA,USA
603,Fremont Batting Range,1405 E State St,Fremont,OH,43420,419-334-9455,,,USA,USA
604,GoldStocks Sporting Goods,98 Freemans Bridge Road,Scotia,NY,12302,518-382-2037,,,USA,USA
605,Got'em Sports,3400 Aviation Blvd,Vero Beach,FL,32960,772-562-4333,,,USA,USA
606,Hibbett Sports,2700 Milan Court,Birmingham,AL,35211,205-942-4292,,http://www.hibbett.com/,USA,USA
607,Johnny Mac's Sporting Goods,10100 Watson Road,St. Louis,MO,63127,314-966-5444,,,USA,USA
608,Kimmel Athletic Supply,15326 NE 96th Place #A-10,Redmond,WA,98052,509-326-7710,,,USA,USA
609,Kimmel Athletic Supply,202 E Mission Ave,Spokane,WA,99202,509-326-7710,,,USA,USA
610,Kratz Sporting Goods,335 Beckett Street,Clarksville,IN,47129,812-282-5400,,,USA,USA
611,New Bern Sporting Goods,3721 Trent Road,New Bern,NC,28562,252-638-1136,,,USA,USA
612,Olympia Sports,5 Bradley Drive,Westbrook,ME,4092,207-854-2794,,http://www.olympiasports.net/,USA,USA
614,Play It Again Sport - Iowa,1705 First Ave,Iowa City,IA,52240,319-354-4777,,,USA,USA
615,Play It Again Sports - Baltimore,7968 Belaire Rd,Baltimore,MD,21236,410-882-1810,,,USA,USA
616,Play It Again Sports - Greensburg,6041 State Rt. 30 Suite 65,Greensburg,PA,15601,724-834-1121,,,USA,USA
617,Play It Again Sports - Lubbock,4815 50th Street,Lubbock,TX,79414,806-788-0144,,,USA,USA
618,Rayburn Sporting Goods,16 A Ryeland Drive,Cabot,AR,72023,501-605-1618,,,USA,USA
620,Rev Graphics,8103 E US 36,Avon,IN,46123,317-902-8243,,,USA,USA
621,Schuylkill Valley Sports,118 Industrial Drive,Pottstown,PA,19464,610-495-8813,,,USA,USA
623,Sports Shack,101 Deer Park Ave,Babylon Village,NY,11702,631-669-9836,,,USA,USA
624,Sports Shop Of Benton,1212 Military Road Suite A,Benton,AR,72015,501-315-1212,,,USA,USA
625,Strike Zone ,2900 S 110th St,Omaha,NE,68144,402-398-1238,,,USA,USA
626,Swing Kingz,301 Lightfoot Rd,Williamsburg,VA,23188,757-645-4481,,,USA,USA
628,The Batterz Box,1336 S Milwaukee Ave,Libertyville,IL,60048,847-886-0160,,,USA,USA
632,Websters Sporting Goods,5060 E 62nd Street,Indianapolis,IN,46220,317-255-4855,,,USA,USA
633,Worsham Athletics,720 Spartansburg Highway,Hendersonville,NC,28792,828-692-1595,,,USA,USA
637,Baseball 365,9872 Lyndale AVE S,Bloomington,MN,55420,952-881-2255,,,USA,USA
639,Big League Dugout 1,9180 E Indian Bend Road #F-10,Scottsdale,AZ,85250,480-270-6817,,,USA,USA
640,CR Sports/Cowing-Robards,512 Broadway Street,Alexandria,MN,56308,320-763-4333,,,USA,USA
641,DAQ Bats,6147 Tompkins Drive,Mclean,VA,22101,202-365-3246,,,USA,USA
645,Hanson Athletics,170 Canal Place,Philadelphia,MS,39350,601-416-3896,,,USA,USA
646,Lefty's Sports Academy,840 Bloomfield Ave,Clifton,NJ,7012,973-777-2287,,,USA,USA
647,North Texas Baseball,1219 San Marcos Dr,Arlington,TX,76012,817-966-8250,,,USA,USA
652,Play It Again Sports - Evansville,5626 E Virginia Street,Evansville,IN,47715,812-479-3289,,,USA,USA
653,Play It Again Sports - Kissimmee,2900 W. Vine St,Kissimmee,FL,34741,407-944-4005,,,USA,USA
655,Play It Again Sports - Orlando,7621 W. colonial Dr,Orlando,FL,32818,407-445-6633,,,USA,USA
656,Play It Again Sports - Palm Harbor,35181 US Hwy 19 N,Palm Harbor,FL,34684,727-781-7700,,,USA,USA
657,Play It Again Sports - Port St Lucie,"10137 S, Federal Hwy",Port St. Lucie,FL,34952,772-380-9280,,,USA,USA
658,Play It Again Sports - Sarasota,5407 Frutville Rd,Sarasota,FL,34232,941-378-1477,,,USA,USA
661,Play It Again Sports - Stuart,3351 SE Federal Hwy,Stuart,FL,34997,772-286-9552,,,USA,USA
665,Rated Athletic,14168 Central Ave. #H,Chino,CA,91710,909-590-7332,,,USA,USA
668,Strike Zone,715 Sam Houston Street,Sweetwater,TX,79556,325-864-6544,,,USA,USA
669,Texas Sports Zone,10723 Nicoles Place Trail,Houston,TX,77089,832-746-1745,,,USA,USA
689,153 Westfield Sporting Goods,8554 BEACH BLVD.,BUENA PARK,CA,90620,714-947-0304,,,USA,USA
692,Bergen Batting Center,3 New Bridge Road,River Edge,NJ,7661,201-525-1888,,,USA,USA
693,Brickyard Cages,5355 Grant Street,San Diego,CA,92110,619-299-0282,,,USA,USA
694,Century Sports Inc,115 E Mcmurray Road,McMurray,PA,15317,724-941-2120,,,USA,USA
695,Dave's Sport Shop - Fridley,1001 E Moore Lake Dr,Fridley,MN,55432,763-571-4110,,,USA,USA
696,Dave's Valley Sports,102 First Ave W,Shakopee,MN,55379,952-445-3340,,,USA,USA
697,D-Bat - Wichita Falls,7455 Seymore Highway,Wichita Falls,TX,76130,,,,USA,USA
698,D-BAT Academy - Golden Triangle,5900 Park Vista CR,FT Worth,TX,76244,817-337-3228,,,USA,USA
699,Diamond And Ice Sports,6444 Trading Square,Haymarket,VA,20169,703-754-3647,,,USA,USA
700,Farrier Sporting Goods,85 Crescent Ave,Wyckoff,NJ,7481,201-891-9520,,,USA,USA
701,Fuel Team Sales,400 S Earl Suite E,Shorewood,IL,60404,815-401-0049,,,USA,USA
702,Game On Sports Gear,4280 N Highway 19A#2,Mount Dora,FL,32757,352-602-4253,,,USA,USA
704,Idaho Sporting Goods,1001 State Street,Boise,ID,83701,208-344-8448,,,USA,USA
705,Ideal Advertising,13460 Highway 65 NE,Ham Lake,MN,55304,763-862-3699,,,USA,USA
706,Kokaly Sports,509 N Johnson,Bay City,MI,48708,989-671-7412,,,USA,USA
707,Legacy Sporting Goods,1900 Avenue G NW Suite B,Childress,TX,79201,940-937-8383,,,USA,USA
708,Miami Lakes Sports Shop,6763 Main Street,Miami Lakes,FL,33014,305-557-0356,,,USA,USA
710,Play It Again Sports - Chesapeake,1220 Greenbrier Pkwy Ste 130,Chesapeake,VA,23320,757-382-9592,,,USA,USA
711,Play It Again Sports - Decatur GA,2050 Lawrenceville Hwy #C-2,Decatur,GA,30033,404-329-2005,,,USA,USA
712,Play It Again Sports - Ellicott,9150-3 Baltimore National Pike,Ellicott City,MD,21042,410-418-9371,,,USA,USA
714,Play It Again Sports - Lincoln,800 N. 48th,Lincoln,NE,68504,402-483-7447,,,USA,USA
715,Play It Again Sports - Lyndhurst,5455 Mayfield Road,Lyndhurst,OH,44124,440-461-8474,,,USA,USA
718,Play It Again Sports - Richmond,8003 West Broad Street,Richmond,VA,23294,804-527-1988,,,USA,USA
719,Play It Again Sports - San Diego,9841 Mira Mesa Blvd,San Diego,CA,92131,858-695-3030,,,USA,USA
720,Play It Again Sports - Springfield,1300 E Battlefield,Springfield,MO,65804,417-883-7444,,,USA,USA
722,Play It Again Sports - Tallahassee,3183 Capital Circle NE,Tallahassee,FL,32308,850-523-0801,,,USA,USA
723,Rick's Sports,6363 N Monroe Street,Monroe,MI,48162,734-242-0774,,,USA,USA
725,Sports & Sports,3600 N Ridge E,Ashtabula,OH,44004,440-998-4664,,,USA,USA
727,Underdog Equipment,31120 McNamee,Fraser,MI,48026,248-871-7833,,,USA,USA
728,Valle Baseball,4659 West Ridge Road,Spencerport,NY,14559,585-349-7278,,,USA,USA
733,153 Westfield Inc,8554 Beach Blvd,Buena Park,CA,90620,714-947-0304,,,USA,USA
734,913 Sports,601 S Bentsen Rd,McAllen,TX,78501,956-867-6911,,,USA,USA
735,All Around Graphix,819 N. Euclid Ave,Pierre,SD,57501,605-224-4677,,http://www.allaroundgraphics.com,USA,USA
736,Baseball Bargains,54 Cain Drive,Brentwood,NY,11788,631-434-3060,,http://www.baseballbargains.com,USA,USA
737,Baseball Xtreme,7823 Mainland DR,San Antonio,TX,78250,210-837-5039,,,USA,USA
738,Batmen,"4355 E. Lowell Street, Suite H",Ontario,CA,91761,909-573-4322,,,USA,USA
739,Big League Athletics,971 MT. Vernon Road,Newark,OH,43055,740-366-4487,,http://www.bigleaguebaseballnewark.com,USA,USA
740,Budget Sporting Goods,6611 Westcott,Houston,TX,77007,713-864-6806,,http://www.budsportsinc.com,USA,USA
744,Darrow's Sporting Edge,531 Rt. 22E,Whitehouse Station,NJ,8889,908-534-2838,,http://www.darrowsports.com,USA,USA
306,D-Bat Academy - Allen,505 Century Parkway #150,Allen,TX,75013,214-383-4489,,http://www.dbatallen.com,USA,USA
389,D-Bat Academy - West Houston,4310 Brittmoore Road,Houston,TX,77043,713-460-3228,,http://www.dbatwesthouston.com,USA,USA
311,D-Bat Academy - San Antonio,2250 Chipley Circle,San Antonio,TX,78217,210-826-3228,,http://www.dbatsan.com,USA,USA
309,D-Bat Academy - Lewisville,1500 Fairway Drive #1201,Lewisville,TX,75057,972-353-3322,,http://www.dbatlewisville.com,USA,USA
308,D-Bat Academy - Frisco,10875 John W Elliot Drive,Frisco,TX,75034,972-335-4487,,http://www.dbatfrisco.com,USA,USA
307,D-Bat Academy - Fort Worth,6861 Corporation Parkway Suite 100,Fort Worth,TX,76126,817-560-3228,,http://www.dbatftworth.com,USA,USA
67,D-Bat Academy - Mountain Side,1124 Globe Avenue,Mountain Side,NJ,7092,908-518-7950,info@dbatms.com,http://www.dbatms.com,USA,USA
745,D-Bat Academy - Wichita Falls,7455 Seymour Highway,Wichita Falls,TX,76310,940-867-1504,,http://www.dbatwf.com,USA,USA
746,DeMan's Team Sports,295 Main Street,Brookville,PA,15825,814-849-2351,,http://www.demans.com,USA,USA
747,Diamond Sports Complex/Bad Boy Sports,141 Pine View Drive,King,NC,27021,336-971-1247,,,USA,USA
748,Disco Sports,1400 Starling DR,Richmond,VA,23229,804-285-4242,,http://www.discosports.com,USA,USA
749,Efinger Sporting Goods,513 W Union Ave,Bound Brook,NJ,8805,723-356-0604,,http://www.efingersports.com,USA,USA
750,Extra Innings - Indianapolis,5545 S Meridian St.,Indianapolis,IN,46217,317-783-1103,,http://www.extrainnings-indysouth.com,USA,USA
752,GM Sports,1205 Wilde Avenue,Drexel Hill,PA,19206,714-225-9244,,,USA,USA
754,Locker Room - Hollidaysburg,313 Allegheny Street,Hollidaysburg,PA,16648,814-695-8515,,,USA,USA
755,Minnesota USSSA Fastpitch,"540 Greenhaven Road, Suite 102",Anoka,MN,55303,651-245-4498,,http://www.mnusssafp.com,USA,USA
757,Play It Again Sports - Carson City,"911 Topsy Lane, Ste 226-A",Carson City,NV,89705,775-267-3390,,http://www.playitagainsportscarsoncity.com,USA,USA
759,Play It Again Sports - Citrus Heights,8085 Greenback Lane,Citrus Heights,CA,95610,916-725-8007,,http://www.playitagainsportssacramento.com,USA,USA
760,Play It Again Sports - Columbia,1218 Buisness Loop 70  W,Columbia,MO,65202,573-442-9291,,http://www.playitagainsportscolumbiamo.com,USA,USA
763,Play It Again Sports - Leesburg,59 Catoctin Circle NE,Leesburg,VA,20176,703-777-3043,,http://www.playitagainsportsleesburg.com,USA,USA
764,Play It Again Sports - Los Alamitos,4141 Katella Ave,Los Alamitos,CA,90720,714-220-2452,,http://www.playitagainsportslosalamitos.com,USA,USA
765,Play It Again Sports - Massapequa,6160 Sunrise Highway,Massapequa,NY,11758,516-308-4242,,http://www.playitagainsportsmassapequa.com,USA,USA
767,Play It Again Sports - St. Peters,234 Mid Rivers Center,St. Peters,MO,63376,636-397-0100,,http://www.playitagainsportsstpeters.com,USA,USA
770,Point Blank Training Center,1325 N. La Brea Ave,Ingelwood,CA,90302,323-524-8497,,http://www.pointblanktraining.com,USA,USA
771,Primetime Sporting Goods,10933 Harrison Street,La Vista,NE,68128,402-596-2900,,http://www.primetimesportinggoods.com,USA,USA
772,Rod's Sports & Apparel,500 NW Mize Road,Blue Springs,MO,64014,816-220-2315,,http://www.rods-sports.com,USA,USA
773,Scheels - Great Falls,1200 10th Ave S Ste #92,Great Falls,MT,59405,406-453-7666,,http://www.scheels.com,USA,USA
774,Security Sporting Goods,2220 Memorial Dr,Alexandria,LA,71301,318-445-6246,,http://www.securitysportinggoods.com,USA,USA
776,Sports & Fitness Outlet,1407 Maiden Lane,Wenatchee,WA,98801,509-665-9989,,http://www.liquidationsports.com,USA,USA
777,Sports Fever,176 Avenue U,Brooklyn,NY,11223,718-449-2933,,,USA,USA
778,Sports Line,"1515 Lee Trevino Drive, Suite H",El Paso,TX,79936,915-590-3038,,,USA,USA
779,Sports Outlet,703 Black Horse Pike,Glendora,NJ,8029,856-939-2030,,http://www.sportsoutletinc.com,USA,USA
780,Swim's Sports,208 1st Ave E,Oskaloosa,IA,52577,641-673-6779,,,USA,USA
781,Play It Again Sports - Northbrook,575 Waukegan Road,Northbrook,IL,60062,847-564-9180,,http://www.playitagainsportschicagoburbs.com,USA,USA
782,Play It Again Sports - Oak Lawn,5600 W. 95th Street,Oak Lawn,IL,60543,708-636-6311,,http://www.playitagainsportschicagoburbs.com,USA,USA
783,Play It Again Sports - Schaumburg,1127 S. Roselle Road,Schaumburg,IL,60193,847-895-8914,,http://www.playitagainsportschicagoburbs.com,USA,USA
785,Extra Innings of the East Valley,3530 E. Southern Ave.,Mesa,AZ,85204,480-325-3438,,http://www.extrainnings-eastvalley.com,USA,USA
788,All The Way Live Designs,4530 Eagle Falls Place,Tampa,FL,33619,866-727-6777,,,USA,USA
386,Al's Sporting Goods,1075 N. Main Street,Logan,UT,84341,435-752-5151,,http://www.alssports.com,USA,USA
595,Amity Harbor Sports,149 Merrick Road,Amityville,NY,11701,631-691-7505,,,USA,USA
269,ARC Sports,5 Production Drive,Brooksfield,CT,6804,203-775-4140,,http://www.arcsports.com,USA,USA
789,Aries Apparel - Clackamas,"12130 S. 82nd Avenue, Suite 3023",Happy Valley,OR,97086,503-305-8467,,http://www.ariesapparel.com,USA,USA
790,Aries Apparel - Hillsboro,1890 NW 188th Avenue,Hillsboro,OR,97006,503-690-1900,,http://www.ariesapparel.com,USA,USA
791,Athlete's Alley,483 Broad Street,Shrewsbury,NJ,7702,732-842-1127,,http://www.athletesalley.com,USA,USA
441,Bargain Athletics,6551 Jansen Ave NE,Albertville,MN,55301,763-219-8333,,http://www.bargainathletics.com,USA,USA
792,All Sport,"2713 Cantrell Road, Mill-Walk Mall",Harrisonville,MO,64701,816-380-3339,,,USA,USA
504,Al's Sports Shop,9250 Mission Gorge Road,Santee,CA,92071,619-562-4263,,http://www.alssportshop.com,USA,USA
794,Barry Padgett,9000 Avonlea Pl Apt 208,Woodstock,GA,30189,678-326-9238,,,USA,USA
505,Baseball Plus,145 Milbar Blvd,Farmingdale,NY,11735,516-433-0104,,http://www.baseballplusstore.com,USA,USA
796,Baseball Savings,8912 East 34th Street North,Wichita,KY,67226,316-858-0428,,,USA,USA
797,Bases Loaded - Sunrise ,4151 N Pine Island Road,Sunrise,FL,33351,954-616-5408,,,USA,USA
798,Bat MD,3530 East Southern Ave,Mesa,AZ,85204,480-325-3438,,,USA,USA
800,Batters Box Hawaii,1152 Corregidor Street,Kapolei,HI,96707,808-688-8882,,,USA,USA
276,Batters Choice,3555 S. Crater Road,Petersburg,VA,23805,804-732-8044,,http://www.batterschoice.com,USA,USA
756,BB Grand Slam ,910 Oak Tree Ave,South Plainfield,NJ,7080,908-756-4446,,http://www.bbgrandslam.com,USA,USA
507,Big Kids Sporting Goods,14020 Highway 13 South Suite 250,Savage,MN,55278,952-226-2300,,http://www.bigkidssportinggoods.com,USA,USA
638,Big League Dugout 2,5865 W Ray Road #7,Chandler,AZ,85226,480-940-5200,,,USA,USA
283,Blythe's Sport Shop,2810 N. Calumet Avenue,Valparaiso,IN,46383,219-476-0026,,http://www.teamblythes.com,USA,USA
802,BP Athletics.com,19916 Industrial Blvd.,Big Lake,MN,55309,763-445-9190,,http://www.bpathletics.com,USA,USA
804,Brian's Sports,2282 W US90,Lake City,FL,32055,386-755-0570,,,USA,USA
509,California Pro Sports,2420 Carson Street #100,Torrance,CA,90501,310-548-6012,,http://www.calprosports.com,USA,USA
742,Cardinal's Sport Center - Lubbock,6524 Slide Road,Lubbock,TX,79424,806-765-6645,,http://www.mycardinalssportcenter.com,USA,USA
743,Cardinal's Sport Center - Plano,4815 W. Park Boulevard,Plano,TX,75093,972-985-1144,,http://www.mycardinalssportcenter.com,USA,USA
290,Charlie Rose Baseball and Softball,161 Curtner Ave,Campbell,CA,95008,408-559-7673,,http://www.charlierosebaseball.com,USA,USA
805,Choke Grip,3881 N. Steele Street,Denver,CO,80205,720-226-3671,,http://www.chokegrip.com,USA,USA
512,D-Bat Academy-Austin,3813 Helios Way BLD. B/Ste 240,Pflugerville,TX,78660,512-251-4487,,http://www.dbataustin.com,USA,USA
310,D-Bat Academy - Lakeside,2502 Lawing Lane,Rowlett,TX,75088,972-463-3228,,http://www.dbatlakeside.com,USA,USA
806,D-Bat Academy - Lubbock,6104 45th St.,Lubbock,TX,79407,806-788-1402,,http://www.dbatlubbock.com,USA,USA
643,D-Bat Academy - Mansfield,615 S. Wisteria,Mansfield,TX,76063,682-518-8488,,,USA,USA
644,D-Bat Academy - Peoria,8716 W. Ludlow Drive Suite 17&18,Peoria,AZ,85381,623-826-3679,,,USA,USA
511,D-Bat Academy- Tulsa,13679 E. 61st Street,Tulsa,OK,74012,918-286-3700,,http://www.dbattulsa.com,USA,USA
415,D-Bat Academy - Southlake,2870 Market Loop,Southlake,TX,76092,817-251-4902,,http://www.dbatdfw.com,USA,USA
388,D-Bat Academy - Tyler,4715 Candy Lane,Tyler,TX,75701,903-939-2711,,http://www.dbattyler.com,USA,USA
449,Desert Falls Of Utah,11279 S Reedwood Road,South Jordan,UT,84095,801-448-3456,,,USA,USA
808,Donnelley Sports,347 Eastland Dr. South,Twin Falls,ID,83301,208-734-9944,,,USA,USA
809,Dugout Sports Shop,1717 S. Madison,Webb City,MO,64870,417-673-3445,,,USA,USA
810,East Valley Sports Inc.,6306 E. Main Street,Mesa,AZ,85205,480-832-8172,,http://www.eastvalleysports.com,USA,USA
811,Extra Innings - Hanover,23 Leslie Ct.,Whippany,NJ,7981,973-560-1300,,,USA,USA
409,Frizzell Sports,70 Selmar Way,Sylvia,NC,28779,707-834-8857,,http://www.frizsoftball.com,USA,USA
751,Frozen Ropes - Glendora,2244 E Route 66,Glendora,CA,91740,626-335-3700,,http://www.frozenropes.com,USA,USA
812,Frye's Action Athletics,2016 Pacific Ave,Forest Grove,OR,97116,503-357-5120,,http://www.fryesactionathletics.com,USA,USA
813,Game Day Sports,145 Heatherfield Drive,West Columbia,SC,29170,843-230-8776,,http://www.gamedayusssa.com,USA,USA
563,Gear Up Baseball & Softball Academy,524 Ovilla Rd.,Waxahachie,TX,75167,972-845-7053,,http://www.gearupbaseball.net,USA,USA
419,Goetz Brothers Sporting Goods,2629 Broadway Street,Redwood City,CA,94063,650-366-3082,,http://www.goetzsports.com,USA,USA
814,Grand Slam 2,237 S. Battlefield Blvd. Suite 14 G,Chesapeake,VA,23322,757-482-8400,,,USA,USA
392,Gregory Sporting Goods,4421 SE 29th Street,Oklahoma City,OK,73115,405-672-4230,,,USA,USA
517,Hard Knox Baseball,7135 Clinton Road,Loves Park,IL,61111,815-703-2305,,http://www.hardknoxbaseball.com,USA,USA
703,Harve's Sport Shop ,213 North Main,Mitchell,SD,57301,605-996-8226,,,USA,USA
89,Hockers Super Center,34960 Atlantic Ave,Ocean View,DE,19970,302-236-0074,,http://www.hockersmarkets.com,USA,USA
815,Hoosier Bat Company,4511 Evans Ave,Valparaiso,IN,46383,800-228-3787,,,USA,USA
816,Indy Hitters,"3945 Guion Lane, Suite A",Indianapolis,IN,46268,317-679-4979,,http://www.indyhitters.com,USA,USA
817,JC Sports - OH,130 W Columbus Ave,Bellefontaine,OH,43311,937-593-4420,,,USA,USA
818,Jerry's Sporting Goods,9151 Spanish Fort Blvd.,Spanish Fort,AL,36527,251-626-9265,,,USA,USA
460,Jonquil Sporting Goods,1848 Spring Road,Smyrna,GA,30080,770-432-1194,,,USA,USA
395,Just Play It Sports,9667 Highway 129 South,Live Oak,FL,32060,386-208-0713,,,USA,USA
820,Kelly's Sports,897 S. Matlack Street,West Chester,PA,19382,610-436-5458,,http://www.kellyssports.com,USA,USA
821,Key Sport Shop,1300 S. Bishop Ave.,Rolla,MO,65401,573-364-5495,,http://www.keysportshop.com,USA,USA
461,Kiama Custom Apparel ,2048 Akron Peninsula Road,Akron,OH,44313,303-923-9601,,,USA,USA
753,Laur-Lee Sports,211 N. Highland Ave,Ossining,NY,10562,914-941-4018,,,USA,USA
396,Legends Sporting Goods - Staten Island,280 Page Avenue,Staten Island,NY,10307,718-984-6270,,,USA,USA
822,Line Drive Sportz,5977 East 14 Mile Road,Sterling Heights,MI,48312,586-446-9444,,http://www.linedrivesportz.com,USA,USA
823,Lipari Sporting Goods,1812 Highway 90 East,New Iberia,LA,70560,337-365-8827,,http://www.liparispc.com,USA,USA
340,Locker Room Sportswear,1565 W. Main Street,Lewisville,TX,75067,972-436-2420,,http://www.lrsportssore.com,USA,USA
522,M&S Sporting Goods,110 Somers Ave,Colbert,OK,74733,903-271-0165,,http://www.stubbssports.com,USA,USA
103,Mercury Sports ,408 Carpenter Street,Evansville,IN,47708,812-422-9066,retail@mercurysportsllc.com,http://www.mercurysportsllc.com,USA,USA
709,Mira's Sport's and More,6006 Ayers Street,Corpus Christi,TX,78415,361-852-4541,,,USA,USA
346,Morse Enterprises ,112 S. Stanton Street,El Paso,TX,79901,915-533-2746,,http://www.morsesports.com,USA,USA
827,Nill Brothers Sports - Kansas City,2814 South 44th St.,Kansas City,KS,66106,913-384-4242,,,USA,USA
828,Nill Brothers Sports - Overland Park,7204 W. 119th St.,Overland Park,KS,66204,913-345-8655,,,USA,USA
829,Nill Brothers Sports - Shawnee ,15810 Shawnee Mission Pkwy,Shawnee,KS,66217,913-754-1390,,,USA,USA
830,Omega Sports,4237 Park Rd.,Charlotte,NC,28209,704-521-8504,,http://www.omegasports.net,USA,USA
831,Omega Sports,3160 S. Evans Street,Greenville,NC,27834,252-317-8956,,http://www.omegasports.net,USA,USA
832,Omega Sports,9747 Sam Furr Road,Huntersville,NC,28078,704-892-5544,,http://www.omegasports.net,USA,USA
833,Omega Sports,4120 Main at North Hills Street,Raleigh,NC,27609,919-420-1913,,http://www.omegasports.net,USA,USA
834,Omega Sports,3501 Orleander Drive,Wilmington,NC,28403,910-762-7212,,http://www.omegasports.net,USA,USA
835,Pasadena Sporting Goods,115 E. Pasadena Freeway,Pasadena,TX,77506,713-477-7151,,http://www.pasadenasportinggoods.com,USA,USA
836,Pacesetter Sports,2831 S 3rd Street,Terre Haute,IN,47802,812-234-8343,,,USA,USA
837,Play Ball,16 Industrial Way,Salem,NH,3079,603-898-0332,,,USA,USA
838,Play It Again Sports - Altamont Springs,950 N State Road 434,Altamonte Springs,FL,32714,407-788-8280,,,USA,USA
839,Play It Again Sports - Anchorage,2812 70th Ave. East,Fife,WA,98424,907-272-7529,,,USA,USA
758,Play It Again Sports - Cary,446 Crossroads Blvd,Cary,NC,27518,919-851-1851,,http://www.playitagainsportscary.com,USA,USA
841,Play It Again Sports - Charlottesville,1885 Seminole Trail,Charlottesville,VA,22901,434-973-2638,,,USA,USA
842,Play It Again Sports - Clive,9980 Swanson Blvd,Clive,IA,50325,515-402-7427,,,USA,USA
650,Play It Again Sports - Cuyahoga Falls ,661 Howe Ave,Cuyahoga Falls,OH,44221,330-922-0606,,,USA,USA
651,Play It Again Sports - Daytona Beach,1808 W. International Speedway Blvd. # 501,Daytona Beach,FL,32114,386-238-6949,,,USA,USA
843,Play It Again Sports - Fort Myers,11620 S Clevland,Ft.Myers,FL,33907,239-274-8646,,,USA,USA
844,Play It Again Sports - Greensboro,2963 Battleground Ave,Greensboro,NC,27408,336-282-910,,http://www.playitagainsportsnctriad.com,USA,USA
845,Play It Again Sports - Hattiesburg,44000 Hardy Street Suite A-12,Hattiesburg,MS,39402,601-268-8941,,,USA,USA
115,Play It Again Sports - Grove City,2217 String Town Road,Grove City,OH,43123,614-539-8881,,http://www.playitagainsportsgrovecity.com,USA,USA
713,Play It Again Sports - Jacksonville,200 Vale Drive,Saint Augustine,FL,32095,303-887-7797,,,USA,USA
846,Play It Again Sports - Joplin,2640 E 32nd St. #14,Joplin,MO,64804,417-626-7529,,,USA,USA
654,Play It Again Sports - Lake Mary,3879 Lake Emma Road,Lake Mary,FL,32746,407-333-0340,,,USA,USA
762,Play It Again Sports - Lancaster,411 Granite Run DR,Lancaster,PA,17601,717-569-1400,,http://www.playitagainsportslancaster.com,USA,USA
848,Play It Again Sports - Modesto,2720 McHenry Ave,Modesto,CA,95350,209-521-4664,,,USA,USA
849,Play It Again Sports - Naperville ,931 W. 75th Street Suite 185,Naperville,IL,60565,630-355-1121,,,USA,USA
716,Play It Again Sports - Newport News,12132-B Jefferson Ave,Newport News,VA,23602,757-890-8970,,,USA,USA
850,Play It Again Sports - Novi,25875 Novi Road #140,Novi,MI,48375,248-449-4544,,http://www.playitagainsportsnovi.com,USA,USA
851,Play It Again Sports - Ocala,1809 E Silver Springs Blvd,Ocala,FL,34470,352-622-1122,,,USA,USA
766,Play It Again Sports - O'Fallon,2015 W. US Highway 50,Fairview Heights,IL,62208,618-628-2345,,http://www.playitagainsportsofallonil.com,USA,USA
853,Play It Again Sports - Orange Park,70 Blanding Blvd,Orange Park,FL,32073,904-272-1242,,,USA,USA
854,Play It Again Sports - Ponte Vedra Beach,2 Fairfield Boulevard,Ponte Vedra Beach,FL,32082,904-543-0033,,http://www.playitagainsportsbeach.com,USA,USA
721,Play It Again Sports - St. Petersburg,226 37th Ave N,St. Petersburg,FL,33709,727-528-1115,,,USA,USA
117,Play It Again Sports - Tampa,3914 S. Dale Mabry Avenue,Tampa,FL,33611,813-837-8771,,http://www.playitagainsportssouthtampa.com,USA,USA
662,Play It Again Sports - Tampa,13131 N Dale Mabry Hwy.,Tampa,FL,33618,813-969-0855,,,USA,USA
855,Play It Again Sports - Tempe,1840 E. Warner Road,Tempe,AZ,85284,480-345-6107,,,USA,USA
856,Play It Again Sports - Ventura,4705-4 Telephone Road,Ventura,CA,93003,805-644-4948,,,USA,USA
663,Play It Again Sports - Vero Beach,6160 20th St.,Vero Beach,FL,32966,772-563-0026,,,USA,USA
768,Play It Again Sports - Villa Park,379 East North Ave,Villa Park,IL,60181,630-835-3888,,http://www.playitagainsportschicagoburbs.com,USA,USA
857,Play It Again Sports - Westmont,233 W Ogden Avenue,Westmont,IL,60559,630-810-9811,,http://www.playitagainsportswestmont.com,USA,USA
858,Play It Again Sports - Winston Salem,5005 Country Club Road,Winston-Salem,NC,27104,336-760-1470,,http://www.playitagainsportsnctriad.com,USA,USA
664,Play it Again Sports - Winter Springs,1425 Tuskawilla Rd,Winter Springs,FL,32708,407-677-5007,,,USA,USA
859,Play It Again Sports - Woodinville,13210 NE 175th Street,Woodinville,WA,98072,425-481-8676,,http://www.playitagainsportswoodinville.com,USA,USA
119,Players Sporting Goods,5737 North Graham Street,Charlotte,NC,28269,704-598-7966,,http://www.playersls.com,USA,USA
769,Players Warehouse,4738 Gateway Cirle,Kettering,OH,45440,937-938-7987,,http://www.playerswarehouse.com,USA,USA
426,Prep Fan Store,70452 Hwy 21,Covington,LA,70433,985-400-5552,,,USA,USA
860,RB Sporting Goods,2139 San Jacinto Blvd,Austin,TX,78712,972-930-9730,,,USA,USA
125,RBI Sports,616 Corporate Way,Valley Cottage,NY,10989,845-268-9900,al@rbisports.net,http://www.rbisports.net,USA,USA
619,RE Sports,525 Glazebrooke,Corpus Christi,TX,78404,361-774-6354,,,USA,USA
862,Reaper's Den ,11009 Bittersweet Ct,Ellicott City,MD,21042,410-381-4571,,,USA,USA
863,Red Weir Athletic Supplies,211 W. Broadway,Columbia,MO,65203,573-445-4931,,,USA,USA
864,Retro Sports,9100 Fletcher Parkway,La Mesa,CA,91942,619-465-9000,,http://www.retrosports.net,USA,USA
666,Risan Athletics,13649 126th Place Ne,Kirkland,WA,98034,425-821-5172,,,USA,USA
865,Rockwall Sports,579 East I-30,Rockwall,TX,75087,972-772-3054,,,USA,USA
866,S3 Baseball Gloves,513 Fairfield,Corpus Christi,TX,78412,361-854-9994,,,USA,USA
867,Saber Sports,622 W Katella Ave,Orange,CA,92867,714-396-2268,,,USA,USA
868,San Jose Batting Cages,474 Piercy Road,San Jose,CA,95138,408-360-9076,,,USA,USA
869,Savon Sporting Goods,2736 S 1900 W,Ogden,UT,84401,801-627-8151,,http://www.savonsports.net,USA,USA
430,Scheels - Des Moines,101 Jordan Crk Pkwy Bldg 4000,W.Desmoines,IA,50266,515-727-4065,,http://www.scheels.com,USA,USA
871,Scheels - Lincoln,2960 Pine Lake Road-Ste B,Lincoln,NE,68516,402-420-9000,,http://www.scheels.com,USA,USA
428,Scheels - Omaha,17202 Davenport Rd17202 Davenport Street,Omaha,NE,68118,402-289-5666,,http://www.scheels.com,USA,USA
470,Scheels - Rapid City,1225 Eglin Street,Rapid City,SD,57701,605-342-9033,,http://www.scheels.com,USA,USA
872,Scheels - Sioux City,Southern Hills Mall 4400 sereant RD,Sioux City,IA,51106,712-252-1551,,http://www.scheels.com,USA,USA
667,Scheels - Sioux Falls,2101 West 41st Street,Sioux Falls,SD,57105,605-334-7767,,http://www.scheels.com,USA,USA
429,Scheels - Sparks ,1200 Scheels Drive,Sparks,NV,89434,775-331-2700,,http://www.scheels.com,USA,USA
873,Scheels - Springfield,3801 Macarthur  Blvd,Springfield,IL,62711,217-726-6330,,http://www.scheels.com,USA,USA
874,Don Morton Sports,2040 Tuttle Creek Blvd,Manhattan,KS,66502,785-776-5551,,,USA,USA
875,Baseball Savings ,8912 East 34th Street North,Wichita,KS,67226,316-858-0428,,,USA,USA
876,Scott's Sporting Goods,1407 20th Street,Vero Beach,FL,32960,772-778-0661,,http://www.scottssportinggoods.com,USA,USA
622,Showcase Baseball Academy,12857 E. Independence Blvd,Matthews,NC,28105,704-882-7629,,,USA,USA
775,Silverback Sports,1241 SE Indian St,Stuart,FL,34997,772-812-5170,,,USA,USA
877,Smash Hit Sports,38 Sunset Hill,Rochester,NY,14624,585-330-0833,,,USA,USA
878,Softball Pitching Tools,12187 Chewning Road,Glen Allen,VA,23059,804-382-6211,,,USA,USA
879,Sport Shop Of Benton,1212 Military Road,Benton,AR,72015,501-315-1212,,,USA,USA
724,Sportline,6543 Wadsworth Blvd.,Arvada,CO,80003,303-421-6751,,,USA,USA
880,Sports 4 All,108 Haddon Ave,Westmont,NJ,8108,856-240-7546,,http://www.sports-4-all.com,USA,USA
133,Sports Spot,3530 W. 16th Street,Indianapolis,IN,46222,317-631-2324,,,USA,USA
134,Sports Threads,5987 Hoover Road,Grove City,OH,43123,614-539-4555,,,USA,USA
404,Sports USA Elite Training,26072 Merit Circle #112,Laguna Hills,CA,92653,800-613-8002,,,USA,USA
135,Sports Warehouse,4617 Sutherland Road,Owensboro,KY,42303,270-926-6080,,,USA,USA
881,Sports World - New Jersey,"650 Route 206, Suite C",Bordentown,NJ,8505,609-424-3554,,,USA,USA
627,T & B Sports,2049 W Steele Lane,Santa Rosa,CA,95403,707-544-2433,,,USA,USA
559,T & G Allsports,100 Highway 314,Fayetteville,GA,30215,770-460-7700,,http://www.tgallsports.com,USA,USA
474,Team Express ,1003 E. Nakoma Ste 104,San Antonio,TX,78216,210-525-9161,,,USA,USA
531,Temple's Sporting Goods,1524 6th Ave,Moline,IL,61265,309-764-8313,,,USA,USA
883,The Reaper's Den,8919 McGaw Court,Columbia,MD,21045,410-381-4571,,http://www.reapersden.com,USA,USA
478,The Sports Basement,1881 Ygnacio Valley Road,Walnut Creek,CA,94598,925-941-6110,,,USA,USA
363,The Sports Locker,711 West State Street,Olean,NY,14760,716-373-1411,,,USA,USA
884,Top Prospect Sports Academy,19450 Peachland Blvd.,Port Charlotte,FL,33948,941-626-1274,,,USA,USA
629,Triple Crown Training Facility,7855 Plaza Drive,Denver,NC,28037,704-483-4545,,,USA,USA
630,Triple Play Party Center,3186 Gateway Lane,Cantonment,FL,32533,850-479-1122,,,USA,USA
141,Triple Play Youth Athletics,1119 Vinyard Road,Vinton,VA,24179,540-904-6899,,http://www.tripleplayyouthathletics.com,USA,USA
485,Triple S Sports,200 Deb Ave,Waco,TX,76712,254-776-6550,,http://www.triple-s-sports.com,USA,USA
375,Universal Athletic - Gillette,2701 S. Douglas Hwy Unit F2,Gillette,WY,82718,800-343-2103,,http://www.universalathletic.com,USA,USA
533,Victus Sports,1001 Lower Landing Road,Blackwood,NJ,8012,265-225-2287,,http://www.victussports.com,USA,USA
885,Viking Athletic Goods,12 E. Arrow,Marshall,MO,65340,660-886-6881,,,USA,USA
886,Willie's Sport Shop,113 W Main Street,Centralia,WA,98531,360-736-9994,,http://www.williessportshop.net,USA,USA
887,Zorba Inc,409 Covent Ave.,Laredo,TX,78040,956-725-5579,,,USA,USA
801,Complete Game Pro Shop,474 Apollo Drive,Lino Lakes,MN,55014,763-392-1407,,http://www.completegameproshop.com,USA,USA
726,Sportstan,94-547 Uk'ee St,Waipahu,HI,96797,(808) 676-STAN (7826),,,USA,USA
519,Inferno Sports,PO Box 851,Exton,PA,19341,610-803-1729,,http://www.infernosports.com,USA,USA
923,All Out Sports,"32183 Dupont Boulevard, #10",Dagsboro,DE,19939,302-732-1233,,,USA,USA
924,All Star Sporting Goods,1709 W Kingshighway,Paragould,AR,72450,870-239-5109,,http://www.all-starsports.com,USA,USA
925,Atlantic Baseball Club,150 Corporate Park Drive Suite 2100,Pembroke,MA,2359,781-837-4263,,http://www.atlanticbaseballclub.org,USA,USA
926,Beaver Bat Company,3422 Hampton Road,Oceanside,NY,11572,516-442-1123,,http://www.beaverbatcompany.com,USA,USA
927,Benik Baseball,6752 Lantana Road,Lake Worth,FL,33467,561-434-0080,,,USA,USA
928,Best Sports Direct,41114 N. Crockett Ct.,Anthem,AZ,85086,888-852-4550,,http://www.bestsportsdirect.com,USA,USA
929,Burlington Sporting Goods,2233 Hanford Rd.,Burlington,NC,27215,336-226-6634,,http://www.burlingtonsportinggoods.com,USA,USA
930,Compass Athletics,1901 Main Street,Woodward,OK,73801,580-256-7045,,http://www.compass-athletics.com,USA,USA
932,Core Softball Sales,219 West Northampton Street,Bath,PA,18014,610-417-0448,,,USA,USA
933,Crunoz Sports,"728 East 136th Street, Suite 4B",Bronx,NY,10454,,,http://www.crunoz.com,USA,USA
934,Darrow's Sporting Edge,531 US 22,Whitehouse Station,NJ,8889,908-534-2838,,http://www.darrowsports.com,USA,USA
935,Diamond Sport Gear,1580 N. Leroy Street,Fenton,MI,48430,810-629-0718,,http://www.diamondsportgear.com,USA,USA
936,EB Sports,2801-3K North Ward Street,Wilson,NC,27893,252-291-5411,,http://www.ebsportsnc.com,USA,USA
937,Extra Innings Baltimore,7904 Rossville Blvd.,Baltimore,MD,21236,410-665-6789,,http://www.extrainnings-baltimorenorth.com,USA,USA
938,Extra Innings Elkridge,6685C Santa Barbara Ct.,Elkridge,MD,21075,410-540-9399,,http://www.extrainnings-elkridge.com,USA,USA
939,Fallout Sports,212 N. Crawford Ave.,Norman,OK,73071,405-701-5933,,http://www.falloutsports.com,USA,USA
940,Grand Slam USA - Matthews,10715 Independence Pointe Parkway,Matthews,NC,28105,704-847-5333,,http://www.grandslamusa.org,USA,USA
941,Gulfshore Sport Store,7686 49th Street North,Pinellas Park,FL,33781,727-541-6488,,,USA,USA
942,Hitting World,1480 Moraga Road #I-272,Moraga,CA,94556,877-300-0087,,http://www.hittingworld.com,USA,USA
943,Impact Team Sports,1986 Seward Ave.,Naples,FL,34109,239-513-1212,,,USA,USA
944,Koch Sporting Goods,131 W. 4th Street,Cincinnati,OH,45202,513-621-2352,,http://www.kochsports.com,USA,USA
945,Legendz Sporting Goods,14918 Paramount Blvd.,Paramount,CA,90723,562-633-3977,,,USA,USA
946,Lima Sporting Goods,1404 Allentown Road,Lima,OH,45805,419-222-1036,,http://www.limasportinggoods.net,USA,USA
947,Lloyd Sixsmith Sporting Goods,7554 Frankford Avenue,Philadelphia,PA,19136,215-624-6670,,http://www.lloydsixsmith.com,USA,USA
948,M & M Batter Up,130 Hicksville Road,Bethpage,NY,11714,516-731-2020,,http://www.batterupli.com,USA,USA
949,Mid-America Sports Advantage,1413 S. Meridian Road,Jasper,IN,47456,800-264-4519,,http://www.sportsadvantage.com,USA,USA
950,New York Nationals,170 Wilbur Place,Bohemia,NY,11716,631-319-1122,,http://www.nynationals.com,USA,USA
951,New York Nationals,80 Carrol Ave.,Lake Ronkonkoma,NY,11779,631-319-1122,,http://www.nynationals.com,USA,USA
952,Oak Tree Sports Center,910 Oak Tree Avenue,South Plainfield,NJ,7080,908-756-4446,,http://www.bbgrandslam.com,USA,USA
953,OC Sports Exchange,1016 N. Tustin Street,Orange,CA,92867,714-633-1976,,http://www.ocsportsxchange.com,USA,USA
954,O'hara's Sports Inc.,9450 Calumet Avenue,Munster,IN,46321,219-836-5554,,http://www.oharassportsinc.com,USA,USA
955,Paragon Athletic Goods,867 Broadway,New York,NY,10003,212-255-8036,,http://www.paragonsports.com,USA,USA
956,Pastime Sports Academy,1919 Clearing Ct.,New Lenox,IL,60451,815-462-4487,,http://www.pastimeacademy.com,USA,USA
957,Peligro Sports,2200 Amsterdam Avenue,New York,NY,10032,212-568-0222,,http://www.peligrosportsnyc.com,USA,USA
958,Play It Again Sports - Albuquerque,3301 Coors NW,Albuquerque,NM,87120,505-890-7041,,http://www.playitagainsportsabq.com,USA,USA
959,Play It Again Sports - Albuquerque,7401 Menaul Blvd NE,Albuquerque,NM,87110,505-881-0551,,http://www.playitagainsportsalbuquerque.com,USA,USA
960,Play It Again Sports - Appleton,611 W. Northland Avenue,Appleton,WI,54911,920-735-0432,,http://www.playitagainsportsappleton.com,USA,USA
961,Play It Again Sports - Aurora,18883 E Hampden Avenue Unit 193,Aurora,CO,80013,303-627-6301,,http://www.playitagainsportsaurora.com,USA,USA
962,Play It Again Sports - Austin,2933 W Anderson Lane,Austin,TX,78757,512-451-8976,,http://www.playitagainsportsaustin.com,USA,USA
963,Play It Again Sports - Austin,4211 S. Lamar Boulevard,Austin,TX,78704,512-444-2270,,http://www.playitagainsportsaustin.com,USA,USA
964,Play It Again Sports - Beaverton,9244 SW Beaverton-Hillsdale Hwy,Beaverton,OR,97005,503-292-4552,,http://www.playitagainsportsbeaverton.com,USA,USA
965,Play It Again Sports - Bozeman,1707 W Oak St Ste C,Bozeman,MT,59715,406-587-7427,,http://www.playitagainsportsbozeman.com,USA,USA
966,Play It Again Sports - Brentwood,"1701 Mallory Lane, Suite 350",Brentwood,TN,37027,615-661-1107,,http://www.playitagainsportsfranklin.com,USA,USA
967,Play It Again Sports - Buckhead,3872 Roswell Rd,Atlanta,GA,30342,404-257-0229,,http://www.playitagainsportsbuckhead.com,USA,USA
968,Play It Again Sports - Burlington,3280 South Church Street,Burlington,NC,27215,336-350-8672,,,USA,USA
969,Play It Again Sports - Cartersville,410 Cherokee Place,Cartersville,GA,30121,770-386-8866,,http://www.playitagainsportscartersville.com,USA,USA
970,Play It Again Sports - Cedar Rapids,3657 1st Avenue SE,Cedar Rapids,IA,52402,319-366-8664,,http://www.playitagainsportscr.com,USA,USA
972,Play It Again Sports - Chico,1937 E 20th Street,Chico,CA,95928,530-345-7427,,,USA,USA
973,Play It Again Sports - Cinncinnati,4329 Red Bank Rd.,Cinncinnati,OH,45227,513-321-1711,,http://www.playitagainsportsredbankrd.com,USA,USA
974,Play It Again Sports - Cinncinnati2,9990 Kings Auto Mall Drive,Cincinnati,OH,45249,513-583-0040,,http://www.playitagainsportskingsautomall.com,USA,USA
975,Play It Again Sports - Clarksville,121 Terminal Road,Clarksville,TN,37040,931-645-8033,,http://www.playitagainsportsclarksvilletn.com,USA,USA
976,"Play It Again Sports - Columbia, SC",1270 Bower Parkway,Columbia,SC,29212,803-419-8303,,,USA,USA
977,Play It Again Sports - Concord,1150 Contra Costa Boulevard,Concord,CA,94523,925-8253396,,http://www.playitagainsportspleasanthill.com,USA,USA
978,Play It Again Sports - Crystal Lake,6124 Northwest Highway,Crystal Lake,IL,60014,815-459-1717,,http://www.playitagainsportscrystallake.com,USA,USA
979,Play It Again Sports - Dedham,630 Washington Street,Dedham,MA,2026,781-493-6796,,http://www.playitagainsportsdedham.com,USA,USA
980,Play It Again Sports - Durham,5318 New Hope Commons Drive,Durham,NC,27707,919-493-7200,,http://www.playitagainsportstriangle.com,USA,USA
981,Play It Again Sports - Fayetteville,3029 N College,Fayetteville,AR,72703,479-442-7529,,http://www.playitagainsportsfayettevillear.com,USA,USA
982,Play It Again Sports - Fishers,11681 Olio Road,Fishers,IN,46037,317-288-4632,,,USA,USA
983,Play It Again Sports - Florence,8449 US 42,Florence,KY,41042,859-282-6565,,http://www.playitagainsportsunion.com,USA,USA
984,Play It Again Sports - Frederick,5811 Buckeystown Pike,Frederick,MD,21704,24-629-8790,,http://www.playitagainsportsfrederick.com,USA,USA
985,Play It Again Sports - Fullerton,3302 Yorba Linda Blvd,Fullerton,CA,92831,714-993-6383,,http://www.playitagainsportsplacentia.com,USA,USA
986,Play It Again Sports - Goodyear,1400 N Litchfield Road,Goodyear,AZ,85395,623-939-7799,,http://www.playitagainsportsgoodyear.com,USA,USA
987,Play It Again Sports - Grand Island,"2276 N Webb Road, Suite 4",Grand Island,NE,68803,308-381-0123,,http://www.playitagainsportsgrandisland.com,USA,USA
988,Play It Again Sports - Hendersonville,201 N Anderson Lane,Hendersonville,TN,37075,615-822-6633,,,USA,USA
989,Play It Again Sports - Hilliard,4720 Cemetery Road,Hilliard,OH,43026,614-529-9100,,http://www.playitagainsportshilliard.com,USA,USA
990,Play It Again Sports - Jonesboro,3407 East Highland Drive,Jonesboro,AR,72401,870-336-0056,,http://www.playitagainsportsjonesboro.com,USA,USA
991,Play It Again Sports - Mankato,1668 Madison Avenue,Mankaro,MN,56001,507-625-2000,,http://www.playitagainsportsmankato.com,USA,USA
992,Play It Again Sports - Marysville,8628 36th Ave NE,Marysville,WA,98270,360-653-9777,,http://www.playitagainsportsmarysville.com,USA,USA
993,Play It Again Sports - McKinney,1434 N. Central Expressway,McKinney,TX,75070,469-424-1715,,http://www.playitagainsportsmckinney.com,USA,USA
994,Play It Again Sports - Melbourne,2605 W. New Haven Avenue,West Melbourne,FL,32904,321-984-1313,,http://www.playitagainsportsmelbourne.com,USA,USA
995,Play It Again Sports - Mount Pleasant,1035 Johnnie Dodds Blvd.,Mt. Pleasant,SC,29464,843-388-2600,,http://www.playitagainsportsmtp.com,USA,USA
996,Play It Again Sports - Murfreesboro,520 N Thompson Lane,Murfreesboro,TN,37129,615-895-7529,,http://www.playitagainsportsmurfreesboro.com,USA,USA
997,Play It Again Sports - N. Olmsted,4733 Great Northern Blvd,N. Olmsted,OH,44070,440-777-5569,,http://www.playitagainsportsnortholmstedohio.com,USA,USA
998,Play It Again Sports - North Reading,225 Main Street,North Reading,MA,1864,978-664-9363,,http://www.playitagainsportsnorthreadingma.com,USA,USA
999,Play It Again Sports - Orem,934 N State Street,Orem,UT,84057,801-226-0909,,,USA,USA
1000,Play It Again Sports - Oro Valley,7963 N. Oracle Road,Tucson,AZ,85704,520-293-2010,,http://www.playitagainsportstucson.com,USA,USA
1001,Play It Again Sports - Plano,3115 W. Parker Road #470,Plano,TX,75023,972-612-1101,,http://www.playitagainsportsplano.com,USA,USA
1002,Play It Again Sports - Pleasanton,5548 Springdale Ave,Pleasanton,CA,94588,925-734-6750,,http://www.playitagainsportspleasanton.com,USA,USA
1003,Play It Again Sports - Raleigh,6325-39 Falls of Neuse Road,Raleigh,NC,27615,919-877-8171,,http://www.playitagainsportstriangle.com,USA,USA
1004,Play It Again Sports - Renton,17622 108th Ave SE,Renton,WA,98055,425-227-8777,,http://www.playitagainsportsrenton.com,USA,USA
1006,Play It Again Sports - Roanoke,4082 Electric Road,Roanoke,VA,24018,540-774-6809,,http://www.playitagainsportsroanoke.com,USA,USA
1007,Play It Again Sports - Roswell,993 Mansell Road,Roswell,GA,30076,770-642-4880,,http://www.playitagainsportsroswell.com,USA,USA
1008,Play It Again Sports - Shawnee,4409 N Kickapoo,Shawnee,OK,74804,405-395-0200,,http://www.playitagainsportsshawnee.com,USA,USA
1009,Play It Again Sports - Shorewood,978 Brook Forest Ave,Shorewood,IL,60431,815-609-3400,,http://www.playitagainsportsshorewood.com,USA,USA
1010,Play It Again Sports - Simi Valley,2880-B Cochran Street,Simi Valley,CA,93065,805-520-6053,,http://www.playitagainsportsventura.com,USA,USA
1011,Play It Again Sports - Sioux Falls,1208 W 41st Street,Sioux Falls,SD,57105,605-339-2444,,http://www.playitagainsportsiouxfalls.com,USA,USA
1012,Play It Again Sports - SLC,6910 Highland Dr. #3,Salt Lake City,UT,84121,801-944-0094,,http://www.playitagainsportssaltlakecity.com,USA,USA
1013,Play It Again Sports - SLC,2120 S 700 E #D,Salt Lake City,UT,84106,801-466-4499,,http://www.playitagainsportssaltlakecity.com,USA,USA
1014,Play It Again Sports - Snellville,2262 Snellville Plaza,Snellville,GA,30078,770-493-8299,,http://www.playitagainsportssnellville.com,USA,USA
1015,Play It Again Sports - St. Charles,210 N Randall Road,St. Charles,IL,60174,630-584-7334,,http://www.playitagainsportsstcharles.com,USA,USA
1016,Play It Again Sports - Stockton,828 W Benjamin Holt Drive,Stockton,CA,95207,209-474-1944,,,USA,USA
1017,Play It Again Sports - Stoneham,62 E Montvale Avenue,Stoneham,MA,2180,781-438-2399,,http://www.playitagainsportsstonehamma.com,USA,USA
1018,Play It Again Sports - Strongsville,17100 Royalton Road,Strongsville,OH,44136,440-238-1000,,http://www.playitagainsportsstrongsville.com,USA,USA
1019,Play It Again Sports - Torrance,4868 West 190th Street,Torrance,CA,90503,310-921-2800,,http://www.playitagainsportssouthbay.com,USA,USA
1020,Play It Again Sports - Tucson,4750 East Speedway Blvd,Tucson,AZ,85712,520-795-0363,,http://www.playitagainsportstucson.com,USA,USA
1021,Play It Again Sports - Tucson,7280 E Broadway Blvd,Tucson,AZ,85710,520-296-6888,,http://www.playitagainsportstucson.com,USA,USA
1022,Play It Again Sports - West Melbourne,2605 W New Haven Avenue,West Melbourne,FL,32904,321-984-1313,,http://www.playitagainsportsmelbourne.com,USA,USA
1023,Play It Again Sports - Westerville,718 N State Street,Westerville,OH,43082,614-890-2110,,http://www.playitagainsportswesterville.com,USA,USA
1024,Play It Again Sports - Westminster,521 Jermor Lane,Westminster,MD,21157,410-871-1430,,http://www.playitagainsportswesminster.com,USA,USA
1025,Play It Again Sports - Wheeling,115 Bridge Street Plaza,Wheeling,WV,26003,304-243-1477,,http://www.playitagainsportswheeling.com,USA,USA
1026,Sam's Sport Shop,"210 E Highland Drive, Suite #2",Lakeland,FL,33813,863-646-3407,,http://www.samsportshop.com,USA,USA
1027,Scheels - Appleton,4301 W. Wisconsin Avenue #8,Appleton,WI,54913,920-830-2977,,http://www.scheels.com,USA,USA
1028,Scheels - Billings,300 South 24th Street West,Billings,MT,59102,406-656-9220,,http://www.scheels.com,USA,USA
1029,Scheels - Iowa City,1461 Coral Ridge Ave,Coralville,IA,52241,319-625-9959,,http://www.scheels.com,USA,USA
1030,Scheels - Mankato,1850 Adams Street #404,Mankato,MN,56001,507-386-7767,,http://www.scheels.com,USA,USA
1031,Scheels - Reno,1200 Scheels Drive,Sparks,NV,89434,775-331-2700,,http://www.scheels.com,USA,USA
1032,Scheel's - Sandy,11282 S State St,Sandy,UT,8470,801-948-7080,,http://www.scheels.com,USA,USA
1033,Sport Chalet,2 Sport Chalet Drive,La Canada,CA,91011,818-790-9800,,http://www.sportchalet.com,USA,USA
1034,Sports World - Ellisville,54 Henry Avenue,Ellisville,MO,63011,636-230-5005,,http://www.sportsworldinc.com,USA,USA
1035,Sports World - Temple,120 S. Main Street,Temple,TX,76501,254-778-2641,,http://www.sportsworldtemple.com,USA,USA
1036,Stadium Sports,1400 - G Charles Avenue,Greenville,NC,27858,252-329-1212,,http://www.shopstadiumsports.com,USA,USA
1037,Team Sports - Kathleen,1114 Highway 96,Kathleen,GA,31047,478-218-0151,,http://www.teamsportsga.com,USA,USA
1038,Team Sports - Macon,642-B Shurling Drive,Macon,GA,31211,478-741-9677,,http://www.teamsportsga.com,USA,USA
1039,Team Works,2168 Washington Road,Washington,IL,61571,309-745-9924,,,USA,USA
1040,The Batter's Box,1801 Suite A South Blue Bell Road,Brenham,TX,77833,979-830-5515,,http://www.thebattersboxinc.com,USA,USA
1041,The Sports Shop,9143 Union Park Way,Elk Grove,CA,95624,916-685-9850,,http://www.thesportsshop.net,USA,USA
1042,West Florida Baseball Academy,3186 Gateway Lane,Cantonment,FL,32533,850-479-1122,,http://www.westfloridabaseballacademy.com,USA,USA
515,Game Day Sports,14767 Pomerado Road,Poway,CA,92064,858-748-1004,,http://www.mygamedaysports.com,USA,USA
506,Berrys Athletics,7946 Broadway,Lemon Grove,CA,91945,619-466-1248,,http://www.berrysathleticsupply.com,USA,USA
1139,Bashorâ€™s Team Athletics,2828 SE 14th Avenue,Portland,OR,97202,503-226-3696,,http://www.bashors.com,USA,USA
1140,All Out Sports Gear,"4500 E Palm Valley Blvd., Suite 128",Round Rock,TX,78665,512-487-5275,,http://www.alloutsportsgear.com,USA,USA
1141,Show Me Athletics,6885 Williams Road,Christiana,TN,37037,615-293-1084,,http://www.showmeathletics.com,USA,USA
1142,Sports Scene,712 E. Northwest Hwy,Palatine,IL,60074,847-359-5040,,http://www.sportsscene-palatine.com,USA,USA
1143,Kelly's Sports - 2,4635 High Point Blvd.,Harrisburg,PA,17111,717-558-3900,,http://www.kellyssports.com,USA,USA
1144,The Sports Center - Natchez,305 Sgt. Prentiss Drive,Natchez,MS,39120,601-442-7951,,,USA,USA
1145,The Sports Center - Starkville,311 Hwy 12 West,Starkville,MS,39759,662-323-3535,,,USA,USA
1146,Play At The Cage,227 Monroe Street,Saline,MI,48176,734-646-3820,,http://www.thecage.us,USA,USA
1147,Hitter's Hangout,13851 SW 90th Avenue #F211,Miami,FL,33176,305-233-1171,,http://www.hittershangout.com,USA,USA
1149,Extra Innings - Rocklin,4283 Duluth Avenue,Rocklin,CA,95765,916-253-3593,,http://www.extrainnings-rocklin.com,USA,USA
1150,Wayne Sporting Goods,124 E Lancaster Avenue,Wayne,PA,19087,610-293-1249,,http://www.waynesportinggoods.com,USA,USA
1151,Hit After Hit,705 Airpark Center Drive,Nashville,TN,37217,615-399-2287,,http://www.hitafterhitonline.com,USA,USA
1152,Edge Sporting Goods,25 Depot Plaza,Bedford Hills,NY,10507,914-241-2500,,http://www.theedgesportinggoods.com,USA,USA
1153,Academy Sports - Albuquerque,6700 Edith Blvd NE,Albuquerque,NM,87113,480-203-6086,,http://www.ababaseball.com,USA,USA
1154,Play It Again Sports - Shreveport,"1938 70th Street, Ste D",Shreveport,LA,71105,318-220-4385,,,USA,USA
1155,Zond Sports Academy,24 East Kearne Street,Bridgewater,NJ,8807,732-537-1770,,http://www.zonedinc.com,USA,USA
1156,The Batters Box,4123 W 34th Avenue,Amarillo,TX,79109,806-674-6725,,http://www.battersboxamarillo.com,USA,USA
1157,The Ballpark in Mount Prospect,604 W Central Road,Mount Prospect,IL,60056,847-873-0480,,http://www.theballparkmp.com,USA,USA
1158,Badger Sporting Goods,2814 Bryant Road,Madison,WI,53713,608-274-1353,,http://www.bsgsports.com,USA,USA
1159,Sport and Cycle,475 Fortuna Blvd,Fortuna,CA,95540,707-725-9405,,http://www.sportandcycleteamsales.com,USA,USA
1160,D-Bat - Waco,5746 Brushy Creek Trail,Dallas,TX,75252,214-649-3381,,,USA,USA
1161,Pro Impact Sports,1851 McCarthy Blvd Ste. 108,Milpitas,CA,95035,415-370-5300,,,USA,USA
1162,Put on Athletics,1043 NE Stephens,Roseburg,OR,97470,541-672-1306,,,USA,USA
1163,South Bay Sports Training,995 E. Santa Clara Street,San Jose,CA,95116,408-283-0643,,http://www.southbaytraining.com,USA,USA
1164,Legends Sports,801 East Interstate 30,Rockwall,TX,75087,972-722-4433,,,USA,USA
1165,Johnson-Lambe Co.,PO Box 10765,Raleigh,NC,27605,919-832-8848,,http://www.johnsonlambe.net,USA,USA
1171,All Our Sports Gear,"4500 E Palm Valley Blvd, Suite 128",Round Rock,TX,78665,512-487-5275,,http://www.alloutsportsgear.com,USA,USA
1172,America's Pastime Sports,5310 Oakland Avenue NE,Albuquerque,NM,87113,505-5080-5456,,http://www.americaspastimesports.com,USA,USA
1173,AZ Grip-N-Rip,18395 S 186th Way #104,Queen Creek,AZ,85142,480-545-4747,,http://www.azgripnrip.com,USA,USA
1174,Down 2 Earth Sports,362 S Main Street Unit 13,Baxley,GA,31513,912-367-5570,,,USA,USA
1175,Let's Play Ball - Bend Fieldhouse,401 SE Roosevelt,Bend,OR,97702,541-312-9259,,http://www.bendelks.com,USA,USA
1176,Loaded Bases T&C Sportsworld,3802 Victory Blvd,Staten Island,NY,10314,718-698-3700,,http://www.loadedbases.com,USA,USA
1178,Mordecai Sporting Goods,809 Main Street Suite 101,Gardendale,AL,35071,205-631-4172,,http://www.mordecaisports.com,USA,USA
1179,Northwest Athletics,2531 Broadway Ste. D1,Everett,WA,98201,425-508-5258,,,USA,USA
1180,Play It Again Sports - Macedonia,8210 Macedonia Commons #24,Macedonai,OH,44056,330-467-0788,,http://www.playitagainsportsmacedonia.com,USA,USA
1181,Southwest Sporting Goods,115 South 6th Street,Arkadelphi,AR,71923,870-246-2311,,,USA,USA
1183,Suncoast Reebok,"5317 Lena Road,  Suite 103",Bradenton,FL,34211,941-228-7224,,,USA,USA
1184,Westcoast Athletics,8900 SW Imperial Way,Bremerton,WA,98312,360-340-2341,,,USA,USA
1185,SWFL Canes,5961 Northland Rd #6,Fort Myers,FL,33905,238-225-3200,,,USA,USA
1186,BASES - Baseball and Softball Essential Skills,"713  E. Ordnance Road, Suite 319",Baltimore,MD,21226,410-590-3224,,http://www.sandlotbwi.com,USA,USA
1187,Hit Away Batting Cages,433 S. Walnut Creek Place,West Covina,CA,91791,626-234-4749,,,USA,USA
1208,All Our Sports Gear,"4500 E Palm Valley Blvd, Suite 128",Round Rock,TX,78665,512-487-5275,,http://www.alloutsportsgear.com,USA,USA
1209,America's Pastime Sports,5310 Oakland Avenue NE,Albuquerque,NM,87113,505-5080-5456,,http://www.americaspastimesports.com,USA,USA
1210,AZ Grip-N-Rip,18395 S 186th Way #104,Queen Creek,AZ,85142,480-545-4747,,http://www.azgripnrip.com,USA,USA
1211,Down 2 Earth Sports,362 S Main Street Unit 13,Baxley,GA,31513,912-367-5570,,,USA,USA
1214,Let's Play Ball - Bend Fieldhouse,401 SE Roosevelt,Bend,OR,97702,541-312-9259,,http://www.bendelks.com,USA,USA
1215,Loaded Bases T&C Sportsworld,3802 Victory Blvd,Staten Island,NY,10314,718-698-3700,,http://www.loadedbases.com,USA,USA
1217,Northwest Athletics,2531 Broadway Ste. D1,Everett,WA,98201,425-508-5258,,,USA,USA
1218,Play It Again Sports - Macedonia,8210 Macedonia Commons #24,Macedonai,OH,44056,330-467-0788,,http://www.playitagainsportsmacedonia.com,USA,USA
1219,Southwest Sporting Goods,115 South 6th Street,Arkadelphi,AR,71923,870-246-2311,,,USA,USA
1220,Sports Performance Academy,720 E. Lambert Road Suite A,La Habra,CA,90631,562-245-7005,,http://www.lahabraspa.com,USA,USA
1221,Suncoast Reebok,"5317 Lena Road,  Suite 103",Bradenton,FL,34211,941-228-7224,,,USA,USA
1222,Westcoast Athletics,8900 SW Imperial Way,Bremerton,WA,98312,360-340-2341,,,USA,USA
1223,SWFL Canes,5961 Northland Rd #6,Fort Myers,FL,33905,238-225-3200,,,USA,USA
1224,BASES - Baseball and Softball Essential Skills,"713  E. Ordnance Road, Suite 319",Baltimore,MD,21226,410-590-3224,,http://www.sandlotbwi.com,USA,USA
1225,Hit Away Batting Cages,433 S. Walnut Creek Place,West Covina,CA,91791,626-234-4749,,,USA,USA
1226,Pristine Sports-The Cages,1308 Continental Road,Abington,MD,21009,443-987-0769,,,USA,USA
1227,Competitive Athletics,105 NE 7th Street,Grants Pass,OR,97526,541-479-1001,,http://www.competitiveathletics.com,USA,USA
1229,321 Graphix,4012 Hickory Blvd,Granite Falls,NC,28630,828-292-1466,,,USA,USA
1230,Elite Sports Complex,918 Dailey Mill Rd,McDonough,GA,30253,770-957-3369,,http://www.elitesportsgeorgia.com,USA,USA
1231,PIAS-Knoxville,123 N. Seven Oaks Drive,Knoxville,TN,37922,865-531-7711,,http://www.playitagainsportsknoxville.com,USA,USA
1232,Diamond Star Sports,7901 Ruffner Avenue,Van Nuys,CA,91406,206-200-0147,,http://www.diamondstarsports.com,USA,USA
1233,D-Bat Atlanta,2345 Adams Drive,Atlanta,GA,30318,404-355-9700,,http://www.dbatatlanta.com,USA,USA
1234,Home Field Advantage Sporting Goods,219 Wanaque Avenue,Pompton Lakes,NJ,7442,973-835-7714,,,USA,USA
1235,Sport About,1310 East Vista Way,Vista,CA,92084,760-941-8408,,,USA,USA
1236,Going Yard Sports,1314 Chestnut Drive,Hayden,AL,35079,205-647-9273,,http://www.goingyardsports.com,USA,USA
1237,Play It Again Sports - Kenosha,4017 - 75th Street,Kenosha,WI,53142,262-577-5217,,http://www.playitagainsportskenosha.com,USA,USA
1238,Chippewa Valley Sporting Goods,1315 S. Hastings Way,Eau Claire,WI,54701,715-836-6840,,http://www.cv-sports.com,USA,USA
1239,The Dugout Sporting Goods,1211 Castle Hill Avenue,Bronx,NY,10462,718-823-0266,,,USA,USA
1240,Play It Again Sports-Mt. Laurel,"4201 Church Road, Suite F",Mt. Laurel,NJ,8054,856-235-2573,,,USA,USA
1241,Jasa Sports,120 E Ruby Road,Rio Rico,AZ,85648,52 667 712 3093,,,USA,USA
1243,Cenla Sports,5615 Coliseum Blvd.,Alexandria,LA,71303,318-443-7327,,,USA,USA
1244,K-Sports Marketing,610 E Hamilton Avenue,Campbell,CA,95008,408-655-2552,,,USA,USA
1245,C & S Sporting Goods,6311 N 7th Street,Phoenix,AZ,85014,602-279-8406,,http://www.cssportinggoods.com,USA,USA
1246,Park Athletic Supply,6809 Roosevel,Allen Park,MI,48101,313-386-8830,,http://www.parkathleticsupply.net,USA,USA
1247,The Varsity Shop,277 Pierce Street,Birmingham,MI,48009,248-646-4466,,http://www.thevarsityshop.com,USA,USA
1249,Dan's Sport Shop,1155 4th Avenue,Huntington,WV,25701,304-523-1974,,http://www.danssportshop.com,USA,USA
1252,Play It Again Sports - Arnold,223 Arnold Crossroads Center,Arnold,MO,63010,636-333-2688,,http://www.playitagainsportsarnold.com,USA,USA
1253,ITS Baseball,602 Cornerstone Court,Hillsborough,NC,27278,919-245-1181,,http://www.itsbaseball.net,USA,USA
1255,Erie Sport Store,1920 Keystone Drive,Erie,PA,16509,814-866-0200,,http://www.eriesportstore.com,USA,USA
524,Play It Again Sports-Spartansburg,206 W Blackstock Road,Spartansburg,SC,29301,864-595-9911,,http://www.playitagainsportsspartanburg.com,USA,USA
1258,Play It Again Sports-Asheville,611 Tunnel Road,Asheville,NC,28805,828-299-1221,,http://www.playitagainsportsasheville.com,USA,USA
528,Sports Depot,16008 Cross Bay BLVD,Howard Beach,NY,11414,718-845-1800,,http://www.sportsdepot.com,USA,USA
1304,Johnny Mac's Ballwin,14649 Manchester Rd.,Ballwin,MO,63011,636-391-6450,,,USA,USA
1305,Johnny Mac's Florissant,2715 N Hwy 67,Florissant,MO,63033,314-838-1888,,,USA,USA
1306,Johnny Mac's Springfield,3500 S Glenstone Rd,Springfield,MO,65804,417-799-2600,,,USA,USA
1307,Johnny Mac's Swansea,4500 N Illinois St,Swansea,IL,62226,618-222-2828,,,USA,USA
1308,Johnny Mac's St. Peters,5819 Suemandy Rd,St. Peters,MO,63376,636-278-6300,,,USA,USA
1309,Johnny Mac's Michigan,4255 Five Oaks Dr,Lansing,MI,48911,517-393-2221,,,USA,USA
649,Play It Again Sports - Canton,42079 Ford Road,Canton,MI,48187,734-844-8591,,http://www.playitagainsportscanton.com,USA,USA
1313,Play It Again Sports â€“ Southgate,18809 Eureka Road,Southgate,MI,48195,734-284-7488,,http://www.playitagainsportssouthgate.com,USA,USA
1315,Home Run Hitters,1115 Musser Street,Muscatine,IA,52761,563-506-0283,,http://www.hrhitters.com,USA,USA
1316,David Bowen Sporting Goods,"5800 North ""W"" Street, Suite 1",Pensacola,FL,32505,850-494-2244,,http://www.bowensports.com,USA,USA
1317,Laux Sporting Goods,25 Pineview Drive,Amherst,NY,14228,716-691-3367,,http://www.lauxsportinggoods.com,USA,USA
1318,Jim's Sports Center,26 North Second Street,Clearfield,PA,16830,814-765-3582,,http://www.jimssports.com,USA,USA
1319,Genesis Pro Wood Bat CO,"3227 Producer Way, Unit 124",Pomona,CA,91768,323-592-0622,,http://www.genesisbats.com,USA,USA
1320,MC Sports and Printing,293 E. Redlands Blvd,San Bernardino,CA,92408,909-777-0032,,http://www.mcsportsandprinting.com,USA,USA
1321,Titan Sports - Ohio,127 East Main Street,Alliance,OH,44601,330-913-7201,,,USA,USA
1323,Advanced Baseball Academy,"13725 Metcalf Avenue, Suite 394",Overland Park,KS,66223,913-424-0710,,http://www.advancedbaseballacademy.com,USA,USA
1324,Play It Again Sports - Traverse City,1251 W. South Airport Road,Traverse City,MI,49686,231-929-1870,,http://www.playitagainsportstraversecity.com,USA,USA
1325,Play It Again Sports - Corvallis,1422 NW Ninth St,Corvallis,OR,97330,541-754-7529,,,USA,USA
1326,Play It Again Sports - Omaha,8453 West Center Road,Omaha,NE,68124,402-934-8100,,http://www.playitagainsportsomaha.com,USA,USA
1327,Play It Again Sports - Fairbanks,160 Old Steese Hwy,Fairbanks,AK,99701,907-457-7427,,,USA,USA
1328,Play It Again Sports - Missoula,"2230 N. Reserve Street, Suite 400",Missoula,MT,59808,406-549-1580,,http://www.playitagainsportsmissoula.com,USA,USA
1329,Play It Again Sports - Joplin,2640 E 32nd St. #14,Joplin,MO,64804,417-626-7529,,,USA,USA
1330,Play It Again Sports - Billins,"1005 24th Street West, Suite #3",Billings,MT,59102,406-652-3662,,http://www.playitagainsportsbillings.com,USA,USA
1331,Play It Again Sports - New Hartford,4790 Commercial Drive,New Hartford,NY,13413,315-736-5336,,http://www.playitagainsportsnewhartford.com,USA,USA
1332,Play It Again Sports - Chesterfield,50607 Gratiot,Chesterfield,MI,48051,586-598-7700,,http://www.playitagainsportschesterfieldmi.com,USA,USA
1333,Play It Again Sports - Burnsville,13941 Aldrich Avenue South,Burnsville,MN,55337,952-898-1878,,http://www.playitagainsportsburnsville.com,USA,USA
1334,Play It Again Sports - Boulder,653 S. Broadway,Boulder,CO,80305,303-499-2011,,http://www.playitagainsportsboulder.com,USA,USA
1335,Play It Again Sports - Phoenix,3143 E. Greenway Road #705,Phoenix,AZ,85032,602-971-8604,,,USA,USA
1336,Play It Again Sports - La Crosse,"4400 State Road 16, Suite 130",La Crosse,WI,54601,608-784-4949,,http://www.playitagainsportslacrosse.com,USA,USA
1337,Bob's Sporting Goods,133 Wyoming Street,Hazleton,PA,18201,570-455-1421,,http://www.bobsspggoods.com,USA,USA
1338,The Clubhouse Batting Cages,"3950 Valley Blvd, Suite #A",Walnut,CA,91789,909-595-3084,,http://www.clubhousebchitting.com,USA,USA
1339,Quali-Tee Design Sportswear,"1270 US RT. 22 NW, Suite 9",Washington Courthouse,OH,43160,740-333-8337,,http://www.qualiteedesign.com,USA,USA
1340,Bill's Locker Room 3,109 South Main Street,Bryan,OH,43506,419-636-5661,,http://www.billslockerroom3.com,USA,USA
1341,Play It Again Sports - Longmong,800 South Hover Road,Longmont,CO,80501,303-774-9912,,http://www.playitagainsportslongmont.com,USA,USA
1342,Champlin Athletic,12172 Ensign Avenue North,Champlin,MN,55316,763-421-7949,,,USA,USA
1344,Play It Again Sports - Green Bay,2270 S Ridge Road,Green Bay,WI,54304,920-497-1420,,http://www.playitagainsportsgreenbay.com,USA,USA
1345,Play It Again Sports - Oshkosh,1830 S Koeller Road,Oshkosh,WI,54902,920-231-5200,,http://www.playitagainsportsoshkosh.com,USA,USA
1346,Sports Depot - Rock Island,1316 30th Street,Rock Island,IL,61201,309-793-0188,,http://www.sports-depot.net,USA,USA
1347,The Tackle Box,210 South Georgetown Highway,Johnsonville,SC,29555,843-384-3117,,,USA,USA
1348,Tyler Athletics,5520 Old Jacksonville Hwy,Tyler,TX,75703,903-534-9500,,,USA,USA
1349,A & H Sporting Goods,313 W. Emaus Avenue,Allentown,PA,18103,484-350-3037,,http://www.ahsporting.com,USA,USA
1350,Rambow Inc.,1000 Rambow Parkway,New London,MN,56273,320-354-2570,,http://www.rambow.com,USA,USA
1351,Play It Again Sports - Mesa,"1457 W. Southers Avenue, A-6",Mesa,AZ,85202,480-834-0005,,http://www.playitagainsportsmesa.com,USA,USA
1352,Dunn's Sporting Goods,8733 Commercial Blvd.,Pevely,MO,63070,636-475-424,,http://www.shopdunns.com,USA,USA
1353,Billy Sadler Baseball Academy,3355 Copter Rd. Unit 6,Pensacola,FL,32514,850-476-8007,,,USA,USA
1354,Play It Again Sports - Madison,Play It Again Sports - Madison,4640 East Washington Avenue,WI,53704,608-441-2640,,http://www.playitagainsportsmadison.com,USA,USA
1355,Play It Again Sports - Madison,6674 A Odana Road,Madison,WI,53719,608-824-3920,,http://www.playitagainsportsmadison.com,USA,USA
1356,Play It Again Sports - Florence,2801 Mall Road #14,Florence,AL,35630,256-767-4800,,http://www.playitagainsportsflorence.com,USA,USA
1357,Athletic Center,801 Linton Way,Princeton,KY,42445,270-365-2500,,http://www.athleticcenter.biz,USA,USA
1358,Play It Again Sports - Chicago,3939 North Ashland Avenue,Chicago,IL,60613,312-371-4876,,http://www.playitagainsportswrigleyville.com,USA,USA
1359,ZONEZ,306 West Union Street,Athens,OH,45701,740-592-3993,,http://www.zonezofathens.com,USA,USA
1360,All-N Sportz,10801 Nacogdoches Road,San Antonio,TX,78217,210-414-8659,,http://www.all-nsportz.com,USA,USA
1361,Ken's Sporting Goods,2610 Hamner Avenue,Norco,CA,92860,951-735-9863,,http://www.kenssportinggoods.com,USA,USA
1362,Play It Again Sports - Greenville,828 Woods Crossing Road,Greenville,SC,29607,864-242-2424,,http://www.playitagainsportsgreenville.com,USA,USA
1363,Play It Again Sports - Norman,"2203 W Main Street, Suite #2",Norman,OK,73069,405-364-0080,,http://www.playitagainsportsnormanok.com,USA,USA
1364,Ama Bay,1209 Beaudry Blvd.,Hudson,WI,54016,715-386-8645,,,USA,USA
1365,Lou's Sporting Goods,523 N Main Street,Fremont,NE,68025,402-721-6040,,http://www.lousteam.com,USA,USA
1366,Destiny Sports,5414 Hailey Avenue,Springdale,AR,72762,479-435-3729,,,USA,USA
1367,Play It Again Sports - Berwyn,1004 Lancaster Avenue,Berwyn,PA,19312,610-651-0202,,http://www.playitagainsportsberwyn.com,USA,USA
1368,Maine Hits,6 Lincoln Avenue,Scarborough,ME,4074,207-730-7227,,http://www.maine-hits.com,USA,USA
1369,Linton Sporting Goods,1173 A Street NW,Linton,IN,47441,812-847-8292,,,USA,USA
1370,The Hitting Zone Baseball Academy,1020 South Cypress Street Ste A,La Habra,CA,90631,714-773-4300,,http://www.thehittingzone.net,USA,USA
1371,The Hitting Zone Baseball Academy (2nd),10900 S. Pioneer Blvd,Santa Fe Springs,CA,90670,562-945-2525,,http://www.thehittingzone.net,USA,USA
1376,PLAY IT AGAIN SPORTS - BOISE,7566 FAIRVIEW AVE.,BOISE,ID,83704,208-378-0053,playitagainboise@hotmail.com,,USA,USA
1216,Top Notch Training,4461 Commerce Street,Grenada,MS,38901,662-392-5877,,http://www.mattoxsportsmadness.com,USA,USA
527,Softball Bat Club,"8909 REGENTS PARK DRIVE, #400",Tampa,FL,33647,888-881-2287,,http://www.Softballbatclub.com,USA,USA
1393,All Pro Collisions,520 E. Osceola Parkway,Kissimmee,FL,34744,407-932-1131,ggonazlez17@cfl.com,,USA,USA
1394,Blackout Tees,4601 Eastgate Blvd,Cincinnati,OH,45245,513-604-9787,jason@blackouttees.com,,USA,USA
1395,Butler Sporting Goods,815 West Main Streer,Hyannis,MA,2601,508-771-4595,jimbutler@butlersportinggoods.com,http://www.butlersportinggoods.com,USA,USA
1396,BW USA,9590 SW 40th Street,Miami,FL,33165,305-554-7488,baseballworldmiami@gmail.com,http://www.baseballworldmiami.com,USA,USA
1397,Clinton Sport Shop,16 W Main Streer,Clinton,CT,6413,860-669-1009,clintons@snet.net,,USA,USA
1398,Dee's Sport Shop,29456 Gratiot Avenue,Roseville,MI,48066,586-772-9395,adolecki@att.net,,USA,USA
1399,Diamond Nation,129 River Road,Flemington,NJ,8822,908-284-1778,jbutler@diamondnation.com,http://www.diamondnation.com,USA,USA
1400,Dub's Sports,3259 California Blvd.,Napa,CA,94558,707-252-2500,scott@dubssports.com,http://www.dubssports.com,USA,USA
1401,Egelston - Maynard Sports,525 Madison Avenue,Convinton,KY,41011,859-581-6648,vwemsports@aol.com,http://www.egelstonmaynard.com,USA,USA
1403,Gee and Bee and Sporting Goods,190 Mount Auburn Avenue,Auburn,ME,4210,207-784-4933,mike@geeandbee.com,http://www.geeandbeesports.com,USA,USA
1404,H Mickel Sports,2101 Forsythe Ave,Monroe,LA,71201,318-388-2375,hmickelsports@yahoo.com,,USA,USA
1405,HeadQuarters 4 Sports,"1303 NW 12st Street, Suite A",Lincoln City,OR,97367,541-994-4727,ddavis@hq4sports.com,http://www.hq4sports.com,USA,USA
1406,Hit Zone LLC,960 Summit St,Lapeer,MI,48446,810-834-9485,2010jdm68@gmail.com,,USA,USA
1407,Instant Replay,1054 Hope Street,Stamford,CT,6907,203-322-7502,sgt1054@gmail.com,,USA,USA
1408,Jeffs Sporting Goods,865 E. Las Tunas Drive,San Gabriel,CA,91776,626-288-6141,ryanjeffs006@yahoo.com,,USA,USA
1409,Tri-Valley Sports,"106C Main Street, Medway Shopping Center",Medway,MA,2053,508-533-5080,tom@tri-valleysports.com,http://www.tri-valleysports.com,USA,USA
1410,Top Notch Training,4461 Commerce Street,Grenada,MS,38901,662-392-5877,jmattox@emcsurvey.com,http://www.mattoxsportsmadness.com,USA,USA
1411,Strike Zone - Denison,131 N Imperial,Denison,TX,75020,903-462-0571,reece.patterson1@gmail.com,,USA,USA
1412,Sports Venture (Baseball Plus),400 Duffy Avenue,Hicksville,NY,11801,516-827-5009,antskimorales@gmail.com,http://www.baseballplusny.com,USA,USA
1413,Sports Unlimited,346 Godshall Drive,Harleysville,PA,19438,800-693-6368,rball@sportsunlimited.com,http://www.sportsunlimitedinc.com,USA,USA
1415,"Sporting Goods, Inc.",14190 Northdale Blvd.,Rogers,MN,55374,763-428-4884,info@sportinggoods.com,http://www.sportinggoodsinc.com,USA,USA
1416,Simonetti Sports,"2007 Route 35, Tricorne Center",Wall,NJ,7719,732-223-8866,info@simonettisports.com,http://www.simonettisports.com,USA,USA
1418,Scott's Sporting Goods,165 Poquonock Avenue,Windsor,CT,6095,860-688-5469,scott165@snet.net,http://www.scottsisports.com,USA,USA
1419,Rijo Athletics,22620 State Route 9 SE,Woodinville,WA,98072,425-486-4878,jose@rijoathletics.com,http://www.rijoathletics.com,USA,USA
1420,Pro Sports Apparel,4658 Arlington Dr.,Placida,FL,33946,941-421-8378,prosportapparel@gmail.com,,USA,USA
1421,Kingsford Sports,25604 N. Gilmen Road,Mundelein,IL,60060,847-438-1001,smpet05@yahoo.com,,USA,USA
1422,Main Street Pie,14933 Main Street,Alachua,FL,32615,368-462-0661,sabkfam@yahoo.com,,USA,USA
1423,McCleerey's Sporting Goods,22 S State St.,Greenfield,IN,46140,317-462-2886,steve.mccleerey@gmail.com,,USA,USA
1424,MT Elite,820 Park Avenue,Murfreesboro,TN,37129,615-440-2013,jwilson605@comcast.net,,USA,USA
1425,New York Empire Baseball,243 West 60 Street,New York,NY,10023,646-872-1441,jordan@newyorkempirebaseball.org,http://www.newyorkempirebaseball.org,USA,USA
1426,Ocean State Sublimation,16 Greco Lane,Warwick,RI,2886,401-738-1698,oceanstatesublimation@gmail.com,,USA,USA
1427,Parkview Sports,5973 Broadway,Bronx,NY,10471,718-549-4400,parkviewsports@aol.com,,USA,USA
1428,PIAS - Seattle,1304 Stewart St,Seattle,WA,98109,206-264-9255,dave@playseattle.com,,USA,USA
1429,Play It Again Sports - Ann Arbor,2461 W Stadium Blvd,Ann Arbor,MI,48103,734-747-6277,piasannarbor@gmail.com,,USA,USA
1430,Play It Again Sports - Biddeford,473 Alfred Street,Biddeford,ME,4005,207-602-6066,,,USA,USA
1431,Play It Again Sports - Deptford,1450 Clements Bridge Road,Deptford,NJ,8096,484-832-0255,playitagaindeptford@outlook.com,,USA,USA
1432,Play It Again Sports - Flint,4230 Miller Road,Flint,MI,48507,810-515-1659,randy@playitagainsportsflint.com,http://www.playitagainsportsflint.com,USA,USA
1433,Play It Again Sports - Hickory,1816 Hwy 70 SE,Hickory,NC,28602,828-324-5070,cmjsports@yahoo.com,http://www.playitagainsportshickory.com,USA,USA
1434,Play It Again Sports - Kentwood,3734 28th St,Kentwood,MI,49512,616-957-0086,cpastimes@gmail.com,,USA,USA
1435,Play It Again Sports - Oceanside,46 Atlantic Avenue,Oceanside,NY,11572,516-678-7900,jim@playsports.com,,USA,USA
1436,Play It Again Sports - Portland,315 Marginal Way,Portland,ME,4101,207-773-6063,mikepias@maine.rr.com,http://www.playitagainsportsportlandmaine.com,USA,USA
1437,Play It Again Sports - San Antonio,15038 N. US HWY 281,San Antonio,TX,78232,210-455-3951,playitagainsports_sa@yahoo.com,http://www.playitagainsportssanantonio.com,USA,USA
1439,Monster Bats,600 S. Bell Blvd #18,Cedar Park,TX,78613,512-505-8721,,http://www.monsterbats.com,USA,USA
1451,Vincent Sport Shop,776 Hopmeadow Street,Simsbury,CT,6070,860-658-5419,,http://www.vincentsportshop.com,USA,USA
1452,Danielson Surplus Sales,151 Main Street,Danielson,CT,6239,860-774-6287,,http://www.danielsonsurplussales.com,USA,USA
1454,Play It Again Sports - Rapid City,660 N Lacrosse Street,Rapid City,SD,57701,605-341-7538,,http://www.playitagainsportsrapidcity.com,USA,USA
1455,Dave's Sport Shop,"13950 Grove Drive, #200",Maple Grove,MN,55311,736-420-8837,,http://www.daves-sportshop.com,USA,USA
1456,Instant Replay Sports,8913 Penn Ave. S,Bloomington,MN,55431,952-888-1898,,http://www.instantreplaysports.biz,USA,USA
1457,Cole Sports - Gillette,320 S Gillette Avenue,Gillette,WY,82716,307-682-1302,,,USA,USA
1458,Mikdkey's Place,74 Main Street,Cooperstown,NY,13326,607-547-5775,,http://www.mickeysplace.com,USA,USA
1459,Natick Outdoor Store,38 North Avenue,Natick,MA,1760,508-653-6400,,http://www.natickoutdoor.com,USA,USA
1460,Elite Sports USA,309 E. Katella Avenue,Orange,CA,92867,714-639-9940,,http://www.elitesportsusa.net,USA,USA
1461,Play It Again Sports - Vancouver,8101 NE Parkway Drive,Vancouver,WA,98662,360-260-9440,,http://www.playitagainsportsvancouverwa.com,USA,USA
1462,Woodbury Sports,7956 Jericho Turnpike,Woodbury,NY,11797,516-496-0600,,http://www.woodburysports.com,USA,USA
1463,Garretson's Sport Center,3817 W 10th St,Greeley,CO,80634,970-353-8068,,,USA,USA
1464,Klem's,117 West Main Street,Spencer,MA,1562,508-885-2708,,http://www.klemsonline.com,USA,USA
1465,Action Sports,1016 Brown Street,Paducah,KY,42003,270-443-8838,,http://www.actionsportspaducah.com,USA,USA
1466,Homewood Sporting Goods,2941 South 18th Street,Homewood,AL,35209,205-879-2828,,http://www.homewoodsportinggoods.net,USA,USA
1468,Graham Sporting Goods,2535 S. Chruch Street,Burlington,NC,27215,336-226-5574,,http://www.grahamsport.com,USA,USA
1469,Play It Again Sports - Colorado Springs,5170 N. Academy Blvd.,Colorado Springs,CO,80418,719-528-5840,,http://www.playitagainsportscsprings.com,USA,USA
1470,Misko Sports,1522 L Street,Ord,NE,68862,308-728-5261,,http://www.miskosports.com,USA,USA
1471,Game On Sporting Goods,411 South 6th Street,Cordele,GA,31015,229-273-6767,,,USA,USA
1472,Thompson Sporting Goods,522 Morris Avenue,Summit,NJ,7901,908-273-0660,,http://www.thompsonsportinggoods.net,USA,USA
1473,Capital Sports,361 S. Pierre Street,Pierre,SD,57501,605-224-1808,,,USA,USA
1474,All-American Sports,3690 N Academy Blvd.,Colorado Springs,CO,80917,719-574-4400,,http://www.allamericansports.com,USA,USA
1475,N2Win Sports,1741 Church Street,Conway,SC,29526,843-488-5530,,http://www.n2winsports.com,USA,USA
1476,Wilson's Sports,116 S Rum River Drive,Princeton,MN,55371,763-389-4848,,http://www.wilsonsportsmn.com,USA,USA
1477,Nutmeg Sporting Goods,327 Main Avenue,Norwalk,CT,6850,203-354-4061,,http://www.nutmegsportinggoods.com,USA,USA
1478,Maine Sport Outfitters,115 Commercial Street,Rockport,ME,4856,207-236-8779,,http://www.mainesport.com,USA,USA
1479,Van Ginkel's Athletics,2208 Ingersoll Avenue,Des Moines,IA,50312,515-244-2459,,,USA,USA
1480,The Wheelhouse,326 Pine Mountain Road,Hudson,NC,28638,828-729-7550,,http://www.heritagesports.org,USA,USA
1481,Fischer's Pro Line Sports,785 New Florissant Road South,Florissant,MO,63031,314-921-6300,,http://www.fischersports.com,USA,USA
1482,Coach's Pro Shop,1624 South 7th Street,Terre Haute,IN,47802,812-242-9951,,,USA,USA
1483,Trinity Bat Company,2493 E Orangethorpe,Fullerton,CA,92831,714-449-1275,,http://www.trinitybats.com,USA,USA
1484,Bolt Athletics,"8260 Patuxent Range Road, Suite P",Jessup,MD,20794,410-997-2658,,http://www.boltathletics.com,USA,USA
1490,GAME ON ATHLETIC CENTER,2362 HICKORY FOREST DRIVE,ASHEBORO,NC,27203,336-465-8296,,,USA,USA
1501,PLAY IT AGAIN SPORTS - ROSEVILLE,2575 FAIRVIEW AVENUE NORTH,ROSEVILLE,MN,55113,,,http://www.playitagainsportsrsvl.com,USA,USA
1502,PLAY IT AGAIN SPORTS - MINNETONKA,11317 HIGHWAY 7,MINNETONKA,MN,55305,,,http://www.playitagainsportsmtka.com,USA,USA
1504,PLAY IT AGAIN SPORTS -EAGAN,1256 TOWN CENTRE DR,EAGAN,MN,55123,,,http://www.playitagainsportseagan.com,USA,USA
1505,PLAY IT AGAIN SPORTS - BLAINE,10135 HWY 65 N,BLAINE,MN,55434,,,http://www.playitagainsportsblaine.com,USA,USA
1506,PLAY IT AGAIN SPORTS â€“ WEST ST. PAUL,2020 SOUTH ROBERT ST,WEST ST. PAUL,MN,55118,,,http://www.playitagainsportswsp.com,USA,USA
1508,We Drop Bombs Baseball,15 Fostertown Road,Medford,NJ,8055,609-408-8828,,http://www.wedropbombs.com,USA,USA
1510,Soto Gloves,2499 E Willow Street,Signal Hill,CA,90755,844-289-7686,,http://www.sotogloves.com,USA,USA
1511,Sluggerville Batting Cages,"8469 Cherry Avenue, Suite C",Fontana,CA,92335,909-823-2655,,,USA,USA
1512,Bases Loaded - Mooresville,609 N Main Street,Mooresville,NC,28115,704-663-2134,,http://www.basesloadedsportsllc.com,USA,USA
1513,Indian Head Athletics,18 Lake Avenue,Manchester,NH,3101,603-627-1292,,http://www.indianheadathletics.com,USA,USA
1514,Game On 13,300 Executive Blvd.,Elmsford,NY,10523,914-592-6613,,http://www.gameon13.com,USA,USA
1515,Holyoke Sporting Goods,1584 Dwight St.,Holyoke,MA,1040,413-532-6372,,,USA,USA
1516,All American Baseball Center,9100 Commerce Circle,Trafford,PA,15085,412-380-7000,,http://www.allamericanbaseballcenter.com,USA,USA
1517,Guilford Sporting Goods,934 Boston Post Road,Guilford,CT,6437,203-453-2370,,http://www.guilfordsportinggoods.net,USA,USA
1518,Play It Again Sports - Bradenton,"3611 1st Street East, Suite 710",Bradenton,FL,34208,941-896-9684,,http://www.playitagainsportsbradenton.com,USA,USA
1519,Rhino Trading Company,1451 N. Industrial Park Drive,Nogales,AZ,85621,520-841-3149,,http://www.rhinotradingco.com,USA,USA
1520,Legends Sporting Goods - Thief River Falls,212 Atlantic Avenue N,Thief River Falls,MN,56701,218-681-1006,,http://www.legendsathletics.com,USA,USA
1521,Pro Player Sports,1520 112th Street SW,Everett,WA,98208,800-657-7630,,http://www.proplayersupply.com,USA,USA
1522,Elite Baseball & Softball,5930 Clyde Park Avenue SW,Wyoming,MI,49509,616-246-7198,,http://www.elitebaseballandsoftball.com,USA,USA
1523,Play It Again Sports - Vails Gate,115 Temple Hill Road,Vails Gate,NY,12584,845-562-2755,,http://www.playitagainsportsvailsgate.com,USA,USA
1525,Game1 Sports,"10096th Street, Unit B",Rancho Cucamonga,CA,91730,909-466-1687,,http://www.game1sports.com,USA,USA
1526,Play It Again Sports - Parkersburg,103 Lakeview Center,Parkersburg,WV,26101,740-350-6110,,,USA,USA
1527,Play It Again Sports - Sawmill,7412 Sawmill Road,Columbus,OH,43235,614-791-9344,,http://www.playitagainsportssawmill.com,USA,USA
1528,Athletx LLC,9219 US Hwy 42 Ste D-127,Prospect,KY,40059,502-253-9787,,,USA,USA
1529,Sportsmen's,725 Bantam Raod,Bantam,CT,6750,860-567-3167,,http://www.sportsmens.biz,USA,USA
1530,Kitsap Sports,622 North Callow Avenue,Bremerton,WA,98312,360-698-4808,,http://www.kitsapsports.com,USA,USA
1531,Nicklasson Athletic,1217 South Broadway,New Ulm,MN,56073,507-354-8586,,http://www.nicklassonathletic.com,USA,USA
1532,Kelley Baseball & Softball Training,1251 Pass Road,Gulfport,MS,39501,228-860-2426,,http://www.kelleybaseball.net,USA,USA
1533,Southern Pride Sports,317 North Main Street,Swainsboro,GA,30401,478-299-3483,,,USA,USA
1534,Burghardt Sporting Goods,14660 W Capital Drive,Brookfield,WI,53005,262-790-1170,,http://www.burghardtsportinggoods.com,USA,USA
1535,Burghardt Sporting Goods,8625 N Port Washington Rd,Fox Point,WI,53217,414-434-0222,,http://www.burghardtsportinggoods.com,USA,USA
1536,Cooperstown Bat Company,118 Main Street PO Box 415,Cooperstown,NY,13326,607-547-2415,,http://www.cooperstownbat.com,USA,USA
1537,The Upper Deck,"3290 Suntree Blvd, #150",Melbourne,FL,32940,321-427-1335,,http://www.theupperdecksports.com,USA,USA
1538,Pitch 'N Hit Baseball Training Center,3356 South Main Street Road,Batavia,NY,14020,716-560-0031,,,USA,USA
1539,Texas Bat Company,811 Stonecrest Road,Argyle,TX,76226,214-215-4641,,,USA,USA
1540,Goal Post Sporting Goods,205 North Main Street,Dickson,TN,37055,615-446-9709,,http://www.goalpostdickson.com,USA,USA
1541,Play It Again Sports - Louisville,291 Hubbards Lane,Louisville,KY,40207,502-897-3494,,http://www.playitagainsportslouisvilleeast.com,USA,USA
1555,Sportshouse,55 South Willow Avenue,Cookeville,TN,38501,931-372-9002,,,USA,USA
1556,Hit-A-Double,2880 NW 2nd Avenue #2,Boca Raton,FL,33431,561-372-2681,,http://www.hitadouble.com,USA,USA
1557,Play It Again Sports - Kennesaw,840 W Barrett Pkwy #560,Kennesaw,GA,30144,770-429-8636,,http://www.playitagainsportskennesaw.com,USA,USA
1558,David Bowen Sporting Goods,4508 Sports Drive,Pace,FL,32571,850-994-3103,,http://www.bowensports.com,USA,USA
1559,David Bowen Sporting Goods,3986 Government Boulevard,Mobile,AL,36693,251-660-1766,,http://www.bowensports.com,USA,USA
1560,David Bowen sporting Goods,1635 Eastern Boulevard,Montgomery,AL,36117,334-651-8440,,http://www.bowensports.com,USA,USA
1561,Williams Athletics,2750 Racetrack Road,St. Johns,FL,32259,904-287-0023,,http://www.williamsathletics.com,USA,USA
1562,Fastpitch Nation,62 Douglas Street,Bloomfield,CT,6070,860-242-0055,,http://www.fastpitchnation.net,USA,USA
1563,Kleen 'N Hard Sports,"70 James St., Unit 111C",Worcester,MA,1603,508-755-8164,,http://www.kleennhardsports.com,USA,USA
1564,S & S Sports Center,105 S. Morrison Blvd.,Hammond,LA,70403,985-345-8323,,http://www.sssportscenter.com,USA,USA
1565,All Star Sports,3037 A Hopyard Road,Pleasonton,CA,94588,925-846-7928,,http://www.buyallstarsports.com,USA,USA
1566,5 Star Athletics,5410 Anderson Road,Tampa,FL,33614,813-892-0797,,,USA,USA
1567,Basin Sports,511 West Main,Vernal,UT,84078,435-789-2199,,http://www.basinsports.com,USA,USA
1568,One on One Sports,1805 Commerce Drive,Vidalia,GA,30474,912-403-3300,,http://www.oneononesports.net,USA,USA
1569,S & M Sports Shop,"707 S. Lafayette St, Suite C",Shelby,NC,28150,704-484-0228,,,USA,USA
1570,Hildebrand Sporting Goods,1809 Roosevelt Road,Broadview,IL,60155,708-344-0800,,http://www.hildebrandsports.com,USA,USA
1571,Minden Athletic Supply,350 Homer Road,Minden,LA,71055,318-377-2136,,,USA,USA
1572,Wharmby Sports,3173 Belmont Avenue,Youngstown,OH,44505,330-759-1682,,,USA,USA
1573,Hometown Sports,1795 Willamette Falls Drive,West Linn,OR,97068,503-594-0515,,http://www.hometownsportsnw.com,USA,USA
1574,Shively Sporting Goods,4006 Dixie Hwy,Louisville,KY,40216,502-448-7272,,http://www.shivelyteamstore.com,USA,USA
1575,Hoosier Sporting Goods,611 Washington St,Columbus,IN,47201,812-376-3418,,http://www.hoosiersportinggoods.com,USA,USA
1576,Sport About,207 S El Camino Real,Encinitas,CA,92024,760-942-9090,,,USA,USA
1577,Jones & Lang Sporting Goods,"1412 Trotwood Avenue, Suite 3",Columbia,TN,38401,931-388-8060,,http://www.jonesandlang.com,USA,USA
1578,Fin to Fur,1008 Nettleton Avenue,Thayer,MO,65791,417-264-4868,,http://www.fintofur.com,USA,USA
1579,Cooks Sporting Goods,1402 Willow Lane,North Wilkesboro,NC,28659,336-667-4121,,http://www.cookssports.com,USA,USA
1580,Tool Sport USA,1060 S. Lapeer,Oxford,MI,48371,248-969-5850,,http://www.toolsportusa.com,USA,USA
1581,Star Sports,5474 Gateway Plaza Drive,Benicia,CA,94510,707-745-6724,,,USA,USA
1582,Advanced Hitting,405 Little Falls Rd,Cedar Grove,NJ,7009,973-857-0791,,http://www.advancedhitting.com,USA,USA
1583,SageSport,815 Floyd Street,Kings Mountain,NC,28086,704-739-2366,,http://www.sagesport.com,USA,USA
1417,Second Time Around Sports,453 Atwood Avenue,Cranston,RI,2920,401-952-1161,2ndtime@cox.net,http://www.2ndtimearoundsports.com,USA,USA
1585,Herb's Sport Shop,51 Wooster Court,Briston,CT,6010,860-314-0200,,,USA,USA
1586,Red's Team Sports,4542 Eagle Falls Place,Tampa,FL,33619,813-612-5999,,http://www.redsteamsports.com,USA,USA
1587,Zinger Bat Company,"3155 N Nevada St, Suite #4",Chandler,AZ,85225,602-980-3155,,http://www.zingerbats.com,USA,USA
1588,Carolina Printing,618 S 5th St.,Hartsville,SC,29550,843-332-6107,,http://www.carolinaprintingshirts.com,USA,USA
1589,Al's Sporting Goods,200 N Market St.,Wilmington,DE,19801,302-655-1511,,http://www.alssportinggoods.net,USA,USA
1590,John Grove Sporting Goods,729 E Market St.,York,PA,17403,717-846-7155,,,USA,USA
1591,Play It Again Sports - Rochester - NY,3333 W Henrietta Road,Rochester,NY,14623,585-427-7750,,http://www.playitagainsportsrochester.com,USA,USA
1592,Play It Again Sports - Westminster - CO,7330 W 88th Avenue,Westminster,CO,80021,303-431-6585,,,USA,USA
1593,Play It Again Sports - West Hartford,15 South Main St,West Hartford,CT,6107,860-523-4692,,http://www.playitagainsportswesthartfordct.com,USA,USA
1594,Play It Again Sports - Fredericksburg,1281 Jefferson Davis Hwy,Fredericksburg,VA,22401,540-374-9284,,http://www.playitagainsportsfredericksburg.com,USA,USA
1595,Play It Again Sports - Virginia Beach,2710 N Mall Drive #136,Virginia Beach,VA,23452,757-431-4448,,http://www.playitagainsportsvabeach.com,USA,USA
1596,Play It Again Sports - Evanston,1908 C Dempster,Evanston,IL,60201,847-866-1733,,http://www.playitagainsportsevanston.com,USA,USA
1597,Fan Gear Ink LLC,5109 Commercial Dr Ste A,N. Richland Hills,TX,76180,817-681-5873,,,USA,USA
1598,Softball Fans INC,3433 Midlink,Kalamazoo,MI,49048,269-327-2110,,http://www.softballfans.com,USA,USA
1599,Play It Again Sports - Witham,108 River ST Ste C,Witham,MA,2453,781-609-2506,,,USA,USA
1611,Play Ball Nashua,9 Congress St,Nashua,NH,3062,603-883-2323,,,USA,USA
1612,Play Ball Salisbury,6 Old Elm St,Salisbury,MA,1952,978-499-0063,,,USA,USA
1613,Longstreth Sporting Goods,78 Wells Road,Spring City,PA,19475,610-495-7022,adl@longstreth.com,http://www.longstreth.com,USA,USA
1616,Oppo Sports,9418 Beaufort Court,New Port Richey,FL,34654,727-326-3212,opposports@gmail.com,http://www.opposports.com,USA,USA
1617,Sports Huddle,922 E 9th Street,Lockport,IL,660441,815-838-8522,mairola@thesportshuddle.com,http://www.thesportshuddle.com,USA,USA
1618,IB Sports,5944 Taylor Drive,Burlington,KY,41005,859-586-3500,tbeimesch@idlebrook.com,http://www.ibsportsky.com,USA,USA
1619,E.L. Lumber Company,"270 Rowe Avenue, Loading Dock D",Milford,CT,6461,203-645-8218,eric@ellumberco.com,,USA,USA
1620,Tennessee Sporting Goods,4817 N Broadway,Knoxville,TN,37918,865-688-5454,sports9648@aol.com,,USA,USA
1622,Hardtke Baseball Academy,610 E Hamilton Avenue,Campbell,CA,95008,408-866-8050,info@hwob.com,http://www.hwob.com,USA,USA
1623,Dr. K's Sports Academy,1412 Servierville Road,Maryville,TN,37804,(865) 233-4677,,http://www.drksbaseball.com,USA,USA
1624,Gel Sports,105 Pine Tree Road,Chestertown,MD,21620,(410) 708-0011,lee.usmc.88@gmail.com,,USA,USA
1625,Longworth Sporting Goods,130 Main Street,Wise,VA,24293,276-393-0044,cl@nxtlevelbaseball.com,,USA,USA
1634,A & B Athletics,315 Emerald Isle Way,Bakersfield,CA,93314,713-501-2606,sales@anbathletics.com,,USA,USA
1635,Xtra Cuts,5443 Katy Hockley Cut Off Road,Katy,TX,77494,713-501-2606,azuniga@xtracuts.com,http://www.xtracuts.com,USA,USA
1636,Cluth Athletics,"31330 Ranch Road 12, Ste A",Dripping Springs,TX,78620,206-406-1214,,http://www.clutchathleticstexas.com,USA,USA
1637,Brammer's Athletic Warehouse,5017 E 5th Street,Katy,TX,77493,281-391-1441,preston@brammers.net,http://www.brammers.net,USA,USA
1638,The Baseball Mission,3117 Frazier Park Dr. NE,Cleveland,TN,37323,423-464-0401,shailey@thebaseballmission.com,http://www.thebaseballmission.com,USA,USA
1639,Fox Valley Team Sports,542 W 9th Avenue,Oshkosh,WI,54902,920-233-3224,jim@fvteamsports.com,http://www.fvteamsports.com,USA,USA
1640,Pacifica Cages,640 Crespi Drive #A,Pacifica,CA,94044,650-355-5500,pacificacages@att.net,http://www.pacificacages.com,USA,USA
1641,Coastal Athletics,2049 Corporate Dr. South,Wilmington,NC,28405,910-452-7314,noble920@cs.com,http://www.coastalathletics.com,USA,USA
1642,Phoenix Bat Company,7801 Corporate Blvd,Plain City,OH,43064,877-598-2287,brad@phoenixbats.com,http://www.phoenixbats.com,USA,USA
1643,South Bend Cubs Performance Center,525 S Lafayette Blvd,South Bend,IN,46601,874-404-3636,performancecenter@southbendcubs.com,http://www.southbendcubsperformancecenter.com,USA,USA
1644,Slammers,28427 N Ballard Drive,Lake Forest,IL,60045,847-816-6572,kyle@slammersillinois.com,http://www.slammersillinois.com,USA,USA
1645,Blue Sky Sports,1736 San Pablo Avenue,Pinole,CA,94564,510-724-2583,gregg@blueskysports.com,http://www.blueskysports.com,USA,USA
1646,Golden Trianble Sports Academy,5015 IH 10 South,Beaumont,TX,77708,409-893-3321,,http://www.gtsportsacademy.net,USA,USA
1647,AMGC Sports,710 Market Street #24,Chapel Hill,NC,27516,617-892-2642,info@amgcsports.com,http://www.amgcsports.com,USA,USA
1648,Legacy Team Sales,1417 SW 17th Street,Ocala,FL,34471,352-732-6759,seth@shoplts.com,http://www.shoplts.com,USA,USA
1649,Cypress Fastpitch Sports,13626 Cardinal Flowers Drive,Cypress,TX,77429,832-799-9865,john@cypressfastpitch.com,,USA,USA
1657,The Hitting Academy,3740 West Lambright St,Tampa,FL,33614,813-878-2255,train@thehittingacademy.com,http://www.thehittingacademy.com/,USA,USA
1662,Inside Pitch Bellingham,1750 Moore St,Bellingham,WA,98229,360-647-1600,,http://www.insidepitchbellingham.com,USA,USA
1664,Play It Again Sports Tuscon,7707 E Broadway Blvd,Tucson,AZ,85710,520 296-6888,,,USA,USA
1665,TEXAS BAT COMPANY,811 STONECREST ROAD,ARGYLE,TX,76226,888-731-4005,,,USA,USA
1666,Sports Basement,610 Old Mason Street- The Presidio,San Francisco,CA,94129,(415) 437-0100,cbacigalupi@sportsbasement.com,http://www.sportsbasement.com,USA,USA
1668,Hawaiian Hardball,808 Ahua Street,Honolulu,HI,96819,808-228-3982,,,USA,USA
1242,Sports Gear Warehouse,45-285 Kaneohe Bay Drive #104,Kaneohe,HI,96744,808-234-SHOE(7463),,http://www.sportsgearwarehouse.com,USA,USA
597,Massarelli Baseball School,1565 Massillon Road,Akron,OH,44312,330-208-6363,,http://www.massarellibaseball.com,USA,USA
1676,Napa Sports Association,2371 Pine St,Napa,CA,94559,,,,USA,USA
1256,Frozen Ropes - Syosset,575 Underhill Blvd. Suite 120,Syosset,NY,11791,516-364-7673,,http://www.frozenropes.com/syosset,USA,USA
1682,5-Tool Sports Training Center,"1292 John Belt Dr., Unit 210",Douglasville,GA,30134,678-715-1472,,http://5toolsportstraining.com,USA,USA
1683,CG Hit Zone Baseball - Softball Club,1214 E. Rodeo Road,Casa Grande,AZ,85122,520-705-0550,,,USA,USA
1684,Double Play Academy,"900 Carter Street, Suite C",Vidalia,LA,71371,318-414-2273,,,USA,USA
1686,Dove Tail Bat Co.,163 Greenville Rd,Shirley,ME,4485,207-695-4663,,http://www.dovetailbat.com,USA,USA
1687,Extra Innings - Muskegon,6850 Norton Pines Dr,Spring Lake,MI,49456,231-799-8172,,http://www.extrainningsmuskegon.com,USA,USA
1688,Game On Closeouts,"41049 Hwy 42, Suite B",Prairieville,LA,70769,225-622-0301,,,USA,USA
1689,JL Bats,4810 Rio Street,Farmington,NM,87402,505-402-7809,,,USA,USA
1692,Just For Kicks,1424 Park Avenue,Muscatine,IA,52761,563-263-0755,,,USA,USA
1693,Main Event Promotions & Apparel,"881 Tallmadge Rd, Suite E",Kent,OH,44240,330-592-0302,,,USA,USA
1694,Old Hickory Bat Company,1739 Hwy 31 W,Goodlettsville,TN,37072,615-285-0588,,http://www.oldhickorybats.com,USA,USA
1695,Play It Again Sports - Lynnwood,"16929 HWY 99, Suite 110",Lynnwood,WA,98037,425-670-1184,,http://www.playitagainsportslynnwood.com,USA,USA
1696,Play It Again Sports - Palatine,315 E. Northwest Highway,Palatine,IL,60067,847-221-8260,,http://www.playitagainsportspalatineplaza.com,USA,USA
1697,Play It Again Sports - Vista,"2070 Hacienda Dr, Suite H",Vista,CA,92081,760-941-3600,,http://www.playitagainsportsvista.com,USA,USA
1698,Premier Baseball Performance Center,8630 103rd Avenue,Ozone Park,NY,11417,718-738-9872,,http://www.premierbbny.com,USA,USA
1699,Replay Sports - Aberdeen,750 N Sand Hills Blvd,Aberdeen,NC,28315,910-624-1277,,,USA,USA
1700,Replay Sports - Richmond,11374 Midlothian TPK,Richmond,VA,23235,804-218-7584,,,USA,USA
1701,The Barn,20237 87th Street,Ottumwa,IA,52501,641-777-5148,,http://www.banginatthebarn.com,USA,USA
1702,"Cleats, Inc.","20221 N. 67th Avenue, Ste E-5",Glendale,AZ,85308,623-537-3374,rich@cleatsinc.com,http://www.cleatsinc.com,USA,USA
1703,The Winning Edge,221 Rouch Place Dr.,Rochester,IN,46975,574-223-6090,winningcory@rtcol.com,http://www.thewinedge.com,USA,USA
1704,Diamond Kicks,240 Jamara Avenue,Medford,NY,11763,631-655-2365,diamondkicsli@gmail.com,,USA,USA
1705,Harford Sports Performance Center,121 Industry Lane,Forest Hill,MD,21050,410-420-8442,harfordsports@verizon.net,http://www.harfordsportsonline.com,USA,USA
1706,365 Sports Complex,453 Old K-61 Highway,Inman,KS,67546,620-585-6365,jbrown@mkcoop.com,http://www.365sportscomplex.com,USA,USA
1708,Legends Sports Academy,10900 Electron Dr,Louisville,KY,40299,502-267-1881,matt@legends502.com,http://www.legendssportsacademy502.com,USA,USA
1709,South Carolina Baseball Academy,2656 Augusta Hwy,Lexington,SC,29072,803-360-7242,mcmillanbob8@aol.com,http://www.scbaseballacademy.com,USA,USA
1710,Lanier Hardware,218 S Main Street,Lexington,NC,27292,336-248-5935,stew@lanierhardware.com,http://www.lanierhardware.com,USA,USA
1711,Ripken Professional Baseball,873 Lond Dr,Aberdeen,MD,21001,410-297-92929,deney@ripkenbaseball.com,http://www.ripkenbaseball.com,USA,USA
1712,All Seasons Sports Academy,"801 Elkton Boulevard, Suite 3",Elkton,MD,21921,443-207-8268,todd@allseasonssportsacademy.com,http://www.allseasonssportsacademy.com,USA,USA
1713,Inside Pitch,1750 Moore St.,Bellingham,WA,98229,360-647-1600,insidepitchbellingham@gmail.com,http://www.ipbellingham.com,USA,USA
1714,Sneakers Plus,2194 Terrace Place,Sea Grit,NJ,8750,732-280-2921,pgacos@msn.com,http://www.sneakersplus.com,USA,USA
1715,Camarillo Bat - R -Up,"487 Dawson Drive, Suite 3S",Camarillo,CA,93012,805-987-2287,jeremyh@scf.org,,USA,USA
1716,Donner Ski Shop,"1275 Kleppe Lane, Suite 5",Sparks,NV,89431,530-308-6007,dssbats@aol.com,,USA,USA
1718,Play Ball USA - Northbrook,1885 Holste Road,Northbrook,IL,60062,847-376-9386,maral@playballdirect.com,http://www.playballnbk.com,USA,USA
1720,Sporting Goods Discounters,1449 Scalp Avenue,Johnstown,PA,15904,814-226-1557,bobbie@sgdiscounters.com,,USA,USA
1721,K-Zone Academy,1002 Investment Blvd,Apex,NC,27502,919-619-0029,dan@kzoneacademy.com,http://www.kzoneacademy.com,USA,USA
1722,The Cages at Los Alamitos,10660 Humbolt Street,Los Alamitos,CA,90720,562-598-2243,,http://www.thecageatlosalamitos.com,USA,USA
1723,Napa Sports Association,2371 Pine St,Napa,CA,94559,707-294-8257,mike@napasportsassociation.com,http://www.napasportsassociation.com,USA,USA
1726,Southeast Texas Baseball Academy,2245 Turnig Leaf Drive,Beaumont,TX,77703,409-842-3900,jasontyler@att.net,http://www.setexasbaseballacademy.com,USA,USA
1727,Tuffy Brooks Sporting Goods,101 S Keowee St.,Dayton,OH,45402,937-461-5570,jnapier@tuffybrooks.com,http://www.tuffybrooks.com,USA,USA
1729,Albert Sporting Goods,121 W. Spring Street,St. Marys,OH,45885,419-394-4012,albertsporting@woh.rr.com,,USA,USA
1730,Scottsdale Batting Cages,"7498 E. Monte Cristo Avenue, Suite 103",Scottsdale,AZ,85260,(480) 878-5250,ashton.mccoy.323@gmail.com,http://www.scottsdalebattingcages.com,USA,USA
1731,Tri-County Sporting Goods,731 Cook Street,Royston,GA,30662,706-245-6394,tricosports@yahoo.com,,USA,USA
1734,Between The Lines,Suite 127  13802 N. Scottsdale Road,Scottsdale,AZ,85254,,,,USA,USA
1735,Maine Sport Outfitters,115 Commercial Street,Rockport,ME,4856,,,,USA,USA
1736,Royal Swings Indoor Batting Cage,5108 N. Harlem Ave.,Harwood Heights,IL,60706,708-667-0027,,http://www.royalswings.com,USA,USA
1737,Bolt Athletics,8260 Patuxent Range Rd,Jessup,MD,20794,,,http://www.BoltAthletics.com,USA,USA
1739,Play It Again Sports,8925 W. Central,Wichita,KS,67212,316-729-0300,,http://www.playitagainsportswichitawest.com,USA,USA
1742,MID-AMERICA SPORTS ADVANTAGE,1413 S. MERIDIAN ROAD,JASPER,IN,47546,812-634-2100,,,USA,USA
1402,Flip Consignment,1279 Springfield Ave.,New Providence,NJ,7974,908-898-0080,stef@flipconsign.com,http://www.flipconsign.com,USA,USA
717,Play It Again Sports - Pasadena,3640 E colorado Blvd,Pasadena,CA,91107,626-405-9988,,http://www.playitagainsportspasadena.com,USA,USA
1744,B2B,10300 Menaul Blvd NE Ste 18,Albuquerque,NM,87112,505-332-7867,,http://www.back2backsports.com,USA,USA
1745,Anj Sports,1807 North Causeway Blvd.,Manderville,LA,70471,985-778-0424,,,USA,USA
1746,Extra Innings - Shelby Township,51162 Filomena Drive,Shelby Twp,MI,48315,586-247-3880,,http://www.extrainnings-shelbytownship.com,USA,USA
1747,Fitness First Sports,141 West Water Street,Kerrville,TX,78028,830-896-0114,,,USA,USA
1748,Advantage Baseball,"8515 Jackrabbit Road, Suite Q",Houston,TX,77095,281-550-2433,,http://www.adavantagebaseball.com,USA,USA
1148,Rayville TNT Sports,726 E 15th Ave.,Anchorage,AK,99501,(907) 279-1466,,http://www.rayvilletntsports.com,USA,USA
1750,Idaho Sporting Goods,440 E. Clark # D,Pocatello,ID,83201,(208) 237-1100,,,USA,USA
359,Universal Athletic - Bozeman,912 N 7th Ave,Bozeman,MT,59715,406.587.4415,,http://www.universalathletic.com,USA,USA
1753,Universal Athletic,284 N Meridian Rd.,Kalispell,MT,59901,(406) 752-7400,,http://www.universalathletic.com,USA,USA
1752,Universal Athletic,1401 Cedar St,Helena,MT,59601,(406) 443-4448,,http://www.universalathletic.com,USA,USA
1751,Universal Athletic,1926 Brooks St Ste 8,Missoula,MT,59801,(406) 721-1350,,http://www.universalathletic.com,USA,USA
1755,PROSTOCK ATHLETIC - BELLINGHAM,110 N SAMISH WAY,BELLINGHAM,WA,98225,360-647-0410,,,USA,USA
1756,Bob Ward and Son's,3015 Paxson,Missoula,MT,59801,(406) 728-3220,,,USA,USA
1757,Bob Ward and Son's,1925 Dewey Blvd,Butte,MT,59701,(406) 494-4452,,,USA,USA
1758,Bob Ward and Son's,3323 Dredge Dr.,Helena,MT,59601,(406) 443-2138,,,USA,USA
1759,Donnelley Sports,1300 Overland Ave.,Burley,ID,83318,(208) 677-4310,,,USA,USA
1760,Sports Cellar,402 Sherman Ave.,Coeur d'alene,ID,83814,(208) 664-9464,,,USA,USA
1762,Kimmel Athletic,411 West Haycraft Ste D2,Couer d'Alene,ID,83814,(208) 277-1020,,,USA,USA
1764,Play It Again Sports Lynwood,19513 Highway 99,Lynwood,WA,98036,(425) 670-1184,,,USA,USA
1765,Athlete's Corner,8014 NE 13th Ave,Vancouver,WA,98665,(360) 574-1010,,,USA,USA
1766,Athlete's Corner,2100 SE 164th Ave.,Vancouver,WA,98683,(360) 256-9662,,,USA,USA
1767,Athlete's Corner,1710 S Gold St.,Centralia,WA,98531,(360) 736-1782,,,USA,USA
1768,Athlete's Corner,760 Ocean Beach Hwy.,Longview,WA,98632,(360) 423-4655,,,USA,USA
275,Bases Loaded,11455 Folsom Blvd,Rancho Cordova,CA,95742,916-983-0633,,http://www.ebasesloaded.com,USA,USA
1770,THE BULLPEN,2020 S 600 W,RUSSIAVILLE,IN,46979,765-883-7939,,,USA,USA
803,Breedlove Sporting Goods,123 W. 2nd Street,Kewanee,IL,61443,309-852-2434,,http://www.breedlovesports.com,USA,USA
631,We Play Sport,1404 Mentor Ave,Painesville,OH,44077,440-357-5586,,http://weplay.com/,USA,USA
