name,street,city,region,postal code,phone,email,website,country,zone
The Zone Slopitch Store,1925 – 39th Avenue NE,Calgary,AB,T2E 6W7,403-250-9655,,,Canada,Canada
JM Sports Centro Cooperative,Ste. P-5,Arroyo,,,00714 787-839-1069,,,Puerto Rico,Central America
Inside Performance,#2 - 1500 Railway Street,North Vancouver,BC,V7J 1B5,604-980-0085,info@insideperformance.ca,,Canada,Canada
Al Anderson's Source For Sports,208 Ave B South,Saskatoon,SK,,306-652-9412,,,Canada,Canada
Inside Performance,Unit #2 - 1500 Railway Street,North Vancouver,BC,,604-614-8636,,,Canada,Canada
"FUSION SPORTS KOREA, INC. - DISTRIBUTOR","1&2F, IKSAN BUILDING, #136-55 JEGI-DONG",DONGDAEMUN-GU,Seoul,,'+82-2-6402-3650,,,Korea,Asia
Prince Albert Source For Sports,365-J Marquis Road W,Prince Albert,SK,,306-764-3259,,,Canada,Canada
Deportes Salvador Colom,"Mario Julia Industrial Park, #530 A Street, Suite 3",San Juan,,,787-781-0765,,http://www.salvadorcolom.com,Puerto Rico,Central America
Prostock Athletic Supply,4482 Juneau Street,Burnaby,BC,,604-291-8676,tquinn@prostock.ca,,Canada,Canada
Strike Zone - Guam,2271 Army Drive,Barrigada,,,671-649-9663,,http://www.guamstrikezone.com,Guam,Oceania
Cambridge Source for Sports,1710 Bishop Street North Unit 4,Cambridge,ON,N1T 1T2,(519) 621-0265,,http://www.cambridgesports.ca,Canada,Canada
Centretown Sports,279 Yonge Street S.,Barrie,ON,L4N 7T9,(705) 728-3977,,http://www.centretownsports.com,Canada,Canada
Corbett's Source for Sports,450 South Service Road West,Oakville,ON,L6K 2H4,(905) 337-9381,,https://www.corbetts.sourceforsports.com,Canada,Canada
Eagle Beaver Sports,10 - 780 Birchmount Avenue,Scarborough,ON,M1K 5H4,(416) 759-9997,eaglebeaversports@outlook.com,,Canada,Canada
Garb & Gear Source for Sports,1063 - 2nd Avenue E.,Owen Sound,ON,N4K 2H8,(519) 376-5555,,http://www.garbandgear.com,Canada,Canada
Home Run Sports (ON),"Unit 15-16, 1911 Dundas Street East",Mississauga,ON,L4X 1M1,(905) 232-1048,,http://www.homerunsports.com,Canada,Canada
Paris Sports Centre SEC# 7809,19 Broadway St.West,Paris,ON,N3L 2S3,(519) 442-0766,prowear@bellnet.ca,,Canada,Canada
Phoenix Performance Products,7550 Highway 27 Unit 4,Vaughan,ON,L4H 0S2,(905) 652-8493,,http://www.phoenixperformance.com,Canada,Canada
Play It Again Sports - Kingston,1300 Bath Road,Kingston,ON,K7M 4X4,(613) 544-7529,,http://www.playitagainsportskingston.com,Canada,Canada
Al Anderson's Source for Sports,208 Avenue B South,Saskatoon,SK,S7M 1M4,(306) 652-9412,,https://www.alandersons.sourceforsports.com,Canada,Canada
A. Roy Sports Inc.,12009 Notre Dame E.,Montreal,QC,H1B 2Y8,(514) 645-5301,,http://www.aroy.com,Canada,Canada
Baseball Town,3835 Bd Cure Labelle,Laval,QC,H7P 0A5,(450) 682-0009,,http://www.baseballtown.ca,Canada,Canada
Marc Sports La Source du Sport,455 Maloney Est,Gatineau,QC,J8P 6Z8,(819) 663-1069,,https://www.marcsports.sourceforsports.com,Canada,Canada
Cleve's Source for Sports,60 Akerley Blvd.,Dartmouth,NS,B3B 1R8,(902) 468-6520,normac@cleves.ca,,Canada,Canada
Home Run Sports (AB),"2221 Crowchild Trail NW, Foothills Stadium",Calgary,AB,T2M 4S7,(403) 984-9446,,http://www.homerunsports.com,Canada,Canada
Sports Connection Source for Sports,833 Kingsway Avenue,Medicine Hat,AB,T1A 2X5,(403) 529-6130,brian.bauman@sportsconnection.ca,,Canada,Canada
Sports World Source For Sports,2250 - 50th Ave,Red Deer,AB,T4R 1W6,(403) 347-3385,,https://www.sportsworld.sourceforsports.com,Canada,Canada
Tuxedo Source for Sports Ltd.,2520 Centre Street N.,Calgary,AB,T2E 2V2,(403) 277-2872,,https://www.tuxedo.sourceforsports.com,Canada,Canada
Home Run Sports (MB),20 De La Seigneurie Blvd.,Winnipeg,MB,R3X 0E9,(204) 981-9802,,http://www.homerunsports.com,Canada,Canada
L'Entrepot Du Baseball,316 rue Marion,Repentigny,QC,J5Z 4W8,(450) 582-8686,,http://www.lentrepotdubaseball.com,Canada,Canada
Toms Inc. ,5-41-1 Sakuragoaka Setagaya-Ku,Tokyo,,,81-3-5799-6644,,,Japan,Asia
Player Sport,Ave Boulevard 2753 2DA Seccion Levittown,Toa Baja,,,787-671-3827,,,Puerto Rico,Central America
Forelle,Marie Curieweg 2,Roermond,,,0031-475-391590,,http://www.forelle.com,Netherlands,Europe
Silverstar Sports,55 West Beaver Creek Road,Richmond Hill,ON,,905-882-0396,,http://www.silverstar-sports.com,Canada,Canada
Dugout 24,Kiefernweg 13,57271 Hilchenbach,,,0049 2733 128426,,http://www.dugout24.de,Germany,Europe
Ausport Superstore,11 Rushdale Street,Knoxfield,VIC,3180,(03) 9764 1511,,http://www.ausport.com.au,Australia,Oceania
Diamond Sports,Unit 1/2A Newton Road,Blacktown,NSW,2148,(02) 9671 5228,,http://www.diamondsport.com.au,Australia,Oceania
Diamond One Baseball,"Shop 1, 156 The Boulevarde",Miranda,NSW,2228,(02) 9524 1005,,http://www.diamondone.com.au,Australia,Oceania
Elite Sports Australia,51 Birch Street,Condell Park,NSW,2200,(02) 9793 8992,,http://www.elitesportsaus.com,Australia,Oceania
Fielders Choice- WA,341 Orrong Road,Kewdale,WA,,(08) 9361 6117,,http://www.fielders.net,Australia,Oceania
Fielders Choice- QLD,"Redlands Baseball Club- Duncan Road, Sheldon QLD","Redlands Softball Park- Sturgeon Street, Ormiston",QLD,,(041) 1885 394,,http://www.fielders.net,Australia,Oceania
Fielders Choice- MEL,23 Anthony Drive,Mount Waverley,VIC,3149,(03) 9802 5884,,http://www.fielders.net,Australia,Oceania
Greatrex,630 Port Road,Beverley,SA,5009,(08) 8445 7077,,http://www.greatrex.com.au,Australia,Oceania
Red Stitches,6/5 Sefton Rd,Thornleigh,NSW,2120,(02) 9484 0736,,http://www.redstitches.com.au,Australia,Oceania
Exclusive Sports Goods,220 Pages Road,Wainoni,Christchurch,,(021) 848 540,,http://www.exclusivesports.co.nz,New Zealand,Oceania
The Fieldhouse- East,1/57 Ben Lomond Crescent,Pakuranga,Auckland,2010,(09) 576-6122,,http://www.thefieldhouse.co.nz,New Zealand,Oceania
The Fieldhouse- West,57 Patiki Road,Avondale,Auckland,1026,( 09 ) 820-2525,,http://www.thefieldhouse.co.nz,New Zealand,Oceania
South African Sport Imports ( SASI ),,,,,082 906 0724,,http://www.sasportimports.co.za,South Africa,Africa
Fielder's Choice Germany,Feldstrasse 6,40721 Hilden,,,49-2103-880722,info@fielders-choice.de,http://www.fielders-choice.de,Germany,Europe
Rhino Trading CO.,1451 N. Industrial Park Dr. Ste 1,Nogales,AZ,85621,520-841-3149,,http://www.rhinotradingco.com,USA,USA
INDUSTRIAS RHINO,YAÑEZ #151 COLONIA MODELO,HERMOSILLO SONORA MEXICO,,83190,662 2159350,,http://www.rhinobats.com.mx/,Mexico,Central America
LA TIENDA BEISBOLERA,AVE CENTENARIO #107 COLONIA MERCED LÓPEZ DELEGACION ALVARO OBREGON CP. 01600,,,,55 36196422,,http://latiendabeisbolera.com,Mexico,Central America
FZ Sports,78 Calle Guayama,Hato Rey,,,787-361-6222,fonzabats@yahoo.com,,Puerto Rico,Central America
Desportes Santana,646 Santana,Arecibo,,,787-650-4323,desportessantana@gmail.com,,Puerto Rico,Central America
Bam Bam Sports Shop,A-11 Vendig Street,Manati,,,787-884-5353,5353bambam@gmail.com,,Puerto Rico,Central America
MVP Sports - PR,PO Box 5215,San Sebastian,,,787-245-3835,jochyvelez@yahoo.com,,Puerto Rico,Central America
Sidelines Sports - Canadian Distributor,2610 Dunwin Drive,Mississauga,ON,L5L 1J5,905 820-4500,sidelines@bellnet.ca,http://www.sidelines.ca,Canada,Canada
